SOURCETXHASH,SOURCEBLOCKNUMBER,SOURCETIMESTAMP,SOURCEENDPOINTID,DESTINATIONENDPOINTID,SOURCE_CHAIN_NAME,DEST_CHAIN_NAME,GUID,MESSAGENONCEDECIMAL,TRANSACTIONSENDER,SENDERADDRESSHEX,RECEIVERADDRESS,ENCODED_PAYLOAD,REQUIREDDVNS,OPTIONALDVNS,REQUIREDDVNCOUNT,OPTIONALDVNCOUNT,DVNTXHASH,DVNBLOCKNUMBER,DVNTIMESTAMP,DVN_FEES_ARRAY,DESTINATIONDELIVEREDTXHASH,DESTINATIONDELIVEREDBLOCKNUMBER,DESTINATIONDELIVEREDTIMESTAMP,DEST_EVENT_NAME,DEST_ORIGIN_NONCE,DEST_ORIGIN_SRCEID,DEST_ORIGIN_SENDER,EXECUTOR_TXHASH,EXECUTORADDRESS,EXECUTORFEE,MESSAGESTATUS,LATENCYTODELIVERY_SECONDS,MATCH_METHOD,DEUTSCHE_IS_REQUIRED,DEUTSCHE_IS_OPTIONAL,DELIVERED_BOOL,MESSAGE_PAIR_KEY,DVN_SOURCE_PAIR_KEY
0x1daf8033caeede8351161d2b25f762fad56179e9a638a61424ebc67100ab26ec,37307848,2025-10-25T15:10:43.000Z,30184,30101,Base,Ethereum,0x1103397cd2bc764e294e36e5b5c01f14b7504cf5056a8d838beae4e69c44427c,,0xaff53fb46d0b10c90b3ef5c29df101c661e05620,,,,0x9e059a54699a285714207b43b055483e78faac25,0xd56e4eab23cb81f43168f9f45211eb027b9ac7cc,0x554833698ae0fb22ecc90b01222903fd62ca4b47,0xa0af56164f02bdf9d75287ee77c568889f11d5f2,0xc2a0c36f5939a14966705c7cec813163faeea1f0,2,3,0x1daf8033caeede8351161d2b25f762fad56179e9a638a61424ebc67100ab26ec,37307848,2025-10-25T15:10:43.000Z,12970771386510,12970771386510,13270125664110,13270125664110,13270125664110,0xb8091e8dbe9fa8a25b476edd607b4a2c5959b25dea422c5be425a8aec6f9b54f,23655286,2025-10-25T15:11:47.000Z,OFTReceived,,,,0x1daf8033caeede8351161d2b25f762fad56179e9a638a61424ebc67100ab26ec,0x2cca08ae69e0c44b18a57ab2a87644234daebae4,118273655481634,DELIVERED,64,GUID,false,true,true,37307848_23655286,37307848_37307848
0x2066452f64ecf47831f4f085c171bd7bf8955c0c8d9b23e718ac9d72ce01c6f3,37307839,2025-10-25T15:10:25.000Z,30184,30101,Base,Ethereum,0xb6d5bbeb3690b74fd8d9565e011e35a5d50fe01ae94393cc656044ef23975c27,,0xe83f75907fb4c575414fa6f5cfe8cef24dc5870c,,,,0x9e059a54699a285714207b43b055483e78faac25,0xd56e4eab23cb81f43168f9f45211eb027b9ac7cc,0x554833698ae0fb22ecc90b01222903fd62ca4b47,0xa0af56164f02bdf9d75287ee77c568889f11d5f2,0xc2a0c36f5939a14966705c7cec813163faeea1f0,2,3,0x2066452f64ecf47831f4f085c171bd7bf8955c0c8d9b23e718ac9d72ce01c6f3,37307839,2025-10-25T15:10:25.000Z,12970771386510,12970771386510,13270125664110,13270125664110,13270125664110,0xe8a69e63ad512387198714c1c970f1c15881ae00a00088dc405f4d338d854f6c,23655284,2025-10-25T15:11:23.000Z,OFTReceived,,,,0x2066452f64ecf47831f4f085c171bd7bf8955c0c8d9b23e718ac9d72ce01c6f3,0x2cca08ae69e0c44b18a57ab2a87644234daebae4,147971500481634,DELIVERED,58,GUID,false,true,true,37307839_23655284,37307839_37307839
0x5ed97cb322f55a9aa3a64e3b8eceaac5b4f63d2f50dd79935dab5d1f4852ce95,37306723,2025-10-25T14:33:13.000Z,30184,30101,Base,Ethereum,0x31778b095fdd56bb76c4396ccf95de10714b03a8b821ecd7e8691ed707459ace,,0xaff53fb46d0b10c90b3ef5c29df101c661e05620,,,,0x9e059a54699a285714207b43b055483e78faac25,0xd56e4eab23cb81f43168f9f45211eb027b9ac7cc,0x554833698ae0fb22ecc90b01222903fd62ca4b47,0xa0af56164f02bdf9d75287ee77c568889f11d5f2,0xc2a0c36f5939a14966705c7cec813163faeea1f0,2,3,0x5ed97cb322f55a9aa3a64e3b8eceaac5b4f63d2f50dd79935dab5d1f4852ce95,37306723,2025-10-25T14:33:13.000Z,12970771386510,12970771386510,13270125664110,13270125664110,13270125664110,0x98859bb13301bb023ec5367f6f2daa92ba5d7e4ed9042eefaa99a709a03e562d,23655099,2025-10-25T14:34:11.000Z,OFTReceived,,,,0x5ed97cb322f55a9aa3a64e3b8eceaac5b4f63d2f50dd79935dab5d1f4852ce95,0x2cca08ae69e0c44b18a57ab2a87644234daebae4,118273655481634,DELIVERED,58,GUID,false,true,true,37306723_23655099,37306723_37306723
0x48d9375f86bf9a6b873824d40a0b38b67c4f1eb93e035017f8424cb2ec6cdd11,37304763,2025-10-25T13:27:53.000Z,30184,30101,Base,Ethereum,0x5f86a506417c040121f4146270b1bafbda7aa929089be5daf74fc6b2c9fdb428,,0xfdd7cf541912de5c6608b44c125b19d4c5211e24,,,,0x554833698ae0fb22ecc90b01222903fd62ca4b47,0x5b6735c66d97479ccd18294fc96b3084ecb2fa3f,0xc2a0c36f5939a14966705c7cec813163faeea1f0,,3,0,0x48d9375f86bf9a6b873824d40a0b38b67c4f1eb93e035017f8424cb2ec6cdd11,37304763,2025-10-25T13:27:53.000Z,2302356000000,2302356000000,2302356000000,,,,,,,,0x48d9375f86bf9a6b873824d40a0b38b67c4f1eb93e035017f8424cb2ec6cdd11,0x2cca08ae69e0c44b18a57ab2a87644234daebae4,18660296355726,SENT,N/A,NO_MATCH,true,false,false,,37304763_37304763
0x4a8a93193e22d442972d3bd03bca1273310b0fbfa5f411925547045553581230,37280365,2025-10-24T23:54:37.000Z,30184,30101,Base,Ethereum,0xb82c4ddae276802f541a3514897a2b18613708937396105302cbe2cad58a5a59,,0xd240a9de14e78e9bd709ddca51f3a0063a96780d,,,,0x9e059a54699a285714207b43b055483e78faac25,0xd56e4eab23cb81f43168f9f45211eb027b9ac7cc,0x554833698ae0fb22ecc90b01222903fd62ca4b47,0xa0af56164f02bdf9d75287ee77c568889f11d5f2,0xc2a0c36f5939a14966705c7cec813163faeea1f0,2,3,0x4a8a93193e22d442972d3bd03bca1273310b0fbfa5f411925547045553581230,37280365,2025-10-24T23:54:37.000Z,12970771386510,12970771386510,13270125664110,13270125664110,13270125664110,0x4ed9106bc228902d65542145fe00c56c84e392f825dbaa4c29daf0b6ba313dd0,23650736,2025-10-24T23:55:47.000Z,OFTReceived,,,,0x4a8a93193e22d442972d3bd03bca1273310b0fbfa5f411925547045553581230,0x2cca08ae69e0c44b18a57ab2a87644234daebae4,118273655481634,DELIVERED,70,GUID,false,true,true,37280365_23650736,37280365_37280365
0x8d1148247c214ac49a236115a35a593792115f70bd468515ec7e131986b5ecc3,37242529,2025-10-24T02:53:25.000Z,30184,30101,Base,Ethereum,0x46149b266396125dbf888c3563ef1dbc98d96845795a75e3851c0e80e59a8d6a,,0xfdd7cf541912de5c6608b44c125b19d4c5211e24,,,,0x554833698ae0fb22ecc90b01222903fd62ca4b47,0x5b6735c66d97479ccd18294fc96b3084ecb2fa3f,0xc2a0c36f5939a14966705c7cec813163faeea1f0,,3,0,0x8d1148247c214ac49a236115a35a593792115f70bd468515ec7e131986b5ecc3,37242529,2025-10-24T02:53:25.000Z,2322912000000,2322912000000,2322912000000,,,,,,,,0x8d1148247c214ac49a236115a35a593792115f70bd468515ec7e131986b5ecc3,0x2cca08ae69e0c44b18a57ab2a87644234daebae4,18665466355726,SENT,N/A,NO_MATCH,true,false,false,,37242529_37242529
0xf7cf30fb94416831432e883cefed9aea6ba4c173aee26505869d476c25d96d7a,37242135,2025-10-24T02:40:17.000Z,30184,30101,Base,Ethereum,0x6369a323196b401994d5c12264669fcf0139cb42217d597e688283885932411b,,0xfdd7cf541912de5c6608b44c125b19d4c5211e24,,,,0x554833698ae0fb22ecc90b01222903fd62ca4b47,0x5b6735c66d97479ccd18294fc96b3084ecb2fa3f,0xc2a0c36f5939a14966705c7cec813163faeea1f0,,3,0,0xf7cf30fb94416831432e883cefed9aea6ba4c173aee26505869d476c25d96d7a,37242135,2025-10-24T02:40:17.000Z,128590392696,128590392696,128590392696,,,,,,,,0xf7cf30fb94416831432e883cefed9aea6ba4c173aee26505869d476c25d96d7a,0x2cca08ae69e0c44b18a57ab2a87644234daebae4,5301951978355,SENT,N/A,NO_MATCH,true,false,false,,37242135_37242135
0x476aab77b6d54dd126300839298503ebcc9256ff32ac3d76bd1beb2bf01d5abc,37240335,2025-10-24T01:40:17.000Z,30184,30101,Base,Ethereum,0x979bf9b8c52f1520ab8fc195640eb032a80b9188d5df26bb229885f81f2373b6,,0x6c7d0ee04194e8c0be559fc0d9ee4240cf66b0c6,,,,0x554833698ae0fb22ecc90b01222903fd62ca4b47,0x5b6735c66d97479ccd18294fc96b3084ecb2fa3f,0xc2a0c36f5939a14966705c7cec813163faeea1f0,,3,0,0x476aab77b6d54dd126300839298503ebcc9256ff32ac3d76bd1beb2bf01d5abc,37240335,2025-10-24T01:40:17.000Z,109084497844,109084497844,109084497844,,,,,,,,0x476aab77b6d54dd126300839298503ebcc9256ff32ac3d76bd1beb2bf01d5abc,0x2cca08ae69e0c44b18a57ab2a87644234daebae4,5271291692234,SENT,N/A,NO_MATCH,true,false,false,,37240335_37240335
0xaef61d2be0194c33c7393e746549b71ec186aa785b5cc1b04ef4910f23fbf665,37203518,2025-10-23T05:13:03.000Z,30184,30101,Base,Ethereum,0xc823ade6aca9b6b591f050400bdff9a891831c325f28cab849c8ae82aeab2d23,,0xfdd7cf541912de5c6608b44c125b19d4c5211e24,,,,0x554833698ae0fb22ecc90b01222903fd62ca4b47,0x5b6735c66d97479ccd18294fc96b3084ecb2fa3f,0xc2a0c36f5939a14966705c7cec813163faeea1f0,,3,0,0xaef61d2be0194c33c7393e746549b71ec186aa785b5cc1b04ef4910f23fbf665,37203518,2025-10-23T05:13:03.000Z,2302380000000,2302380000000,2302380000000,,,,,,,,0xaef61d2be0194c33c7393e746549b71ec186aa785b5cc1b04ef4910f23fbf665,0x2cca08ae69e0c44b18a57ab2a87644234daebae4,18660316355726,SENT,N/A,NO_MATCH,true,false,false,,37203518_37203518
0x40a01b32816becef847fc4685bd2db943cd95bb66bdbe831cd9a631e68b02aee,37202092,2025-10-23T04:25:31.000Z,30184,30101,Base,Ethereum,0xebeebb261f501d0a2093f6c6fcddb8ee5f2221060c5181fe89050a4632543dbb,,0xfdd7cf541912de5c6608b44c125b19d4c5211e24,,,,0x554833698ae0fb22ecc90b01222903fd62ca4b47,0x5b6735c66d97479ccd18294fc96b3084ecb2fa3f,0xc2a0c36f5939a14966705c7cec813163faeea1f0,,3,0,0x40a01b32816becef847fc4685bd2db943cd95bb66bdbe831cd9a631e68b02aee,37202092,2025-10-23T04:25:31.000Z,2302152000000,2302152000000,2302152000000,,,,,,,,0x40a01b32816becef847fc4685bd2db943cd95bb66bdbe831cd9a631e68b02aee,0x2cca08ae69e0c44b18a57ab2a87644234daebae4,18660126355726,SENT,N/A,NO_MATCH,true,false,false,,37202092_37202092
0x5ae5c920e071bb735141f1c2fb856c21b0e8c158a8cb1017912dc399da9c487b,37184991,2025-10-22T18:55:29.000Z,30184,30101,Base,Ethereum,0x0436d8dedd136d35dbfc561e073b1507bc69bab589b2a314713f66d6d5fcf99f,,0x3488d35b470735a3a90e1c13cea5d1041c89c23f,,,,0x9e059a54699a285714207b43b055483e78faac25,0xd56e4eab23cb81f43168f9f45211eb027b9ac7cc,0x554833698ae0fb22ecc90b01222903fd62ca4b47,0xa0af56164f02bdf9d75287ee77c568889f11d5f2,0xc2a0c36f5939a14966705c7cec813163faeea1f0,2,3,0x5ae5c920e071bb735141f1c2fb856c21b0e8c158a8cb1017912dc399da9c487b,37184991,2025-10-22T18:55:29.000Z,11721192073441,11721192073441,11991707132353,11991707132353,11991707132353,0x8b7f28ac0a4d615e3cc594f7ac096b7a5e48fc7c262d36af6c80c3680e340f16,23634987,2025-10-22T18:56:35.000Z,OFTReceived,,,,0x5ae5c920e071bb735141f1c2fb856c21b0e8c158a8cb1017912dc399da9c487b,0x2cca08ae69e0c44b18a57ab2a87644234daebae4,128895686940994,DELIVERED,66,GUID,false,true,true,37184991_23634987,37184991_37184991
0x258e812fe02ce6ecfcd0e1ac91d90130814ac30f090743126f223db604c74a70,37141333,2025-10-21T18:40:13.000Z,30184,30101,Base,Ethereum,0x18112e27712ad4cb939d12d42a4cb1d90875627b59eadcd6e6144ec6f3157dcc,,0xeae5be3835191ebd198af53aa6541cc7de87d6e4,,,,0x554833698ae0fb22ecc90b01222903fd62ca4b47,0x5b6735c66d97479ccd18294fc96b3084ecb2fa3f,0xc2a0c36f5939a14966705c7cec813163faeea1f0,,3,0,0x258e812fe02ce6ecfcd0e1ac91d90130814ac30f090743126f223db604c74a70,37141333,2025-10-21T18:40:13.000Z,2345400000000,2345400000000,2345400000000,,,,,,,,0x258e812fe02ce6ecfcd0e1ac91d90130814ac30f090743126f223db604c74a70,0x2cca08ae69e0c44b18a57ab2a87644234daebae4,18672246355726,SENT,N/A,NO_MATCH,true,false,false,,37141333_37141333
0x12b497464c31f63b98122d977bba3dd6946718697905c2f74ca920149ad03e2c,37129664,2025-10-21T12:11:15.000Z,30184,30101,Base,Ethereum,0x3b4f2cde2b0ffa9a25c2c8d4f908d2c40f39b5303316c52c3ae102c158d45f4a,,0x04ce218ead72401702dd5f3e56cedb7d2d477777,,,,0x9e059a54699a285714207b43b055483e78faac25,0xd56e4eab23cb81f43168f9f45211eb027b9ac7cc,0x554833698ae0fb22ecc90b01222903fd62ca4b47,0xa0af56164f02bdf9d75287ee77c568889f11d5f2,0xc2a0c36f5939a14966705c7cec813163faeea1f0,2,3,0x12b497464c31f63b98122d977bba3dd6946718697905c2f74ca920149ad03e2c,37129664,2025-10-21T12:11:15.000Z,6315995086539,6315995086539,6461762835435,6461762835435,6461762835435,0xa7b812690d2e034baa59435f14bdc10ada1adc502796a8f7c5ba280bf618b4a1,23625859,2025-10-21T12:12:23.000Z,OFTReceived,,,,0x12b497464c31f63b98122d977bba3dd6946718697905c2f74ca920149ad03e2c,0x2cca08ae69e0c44b18a57ab2a87644234daebae4,103381247430514,DELIVERED,68,GUID,false,true,true,37129664_23625859,37129664_37129664
0x34a726c4db92f7cbdaa386ad6f525112fa4beece0c7ea8c522a14663a977306d,37117018,2025-10-21T05:09:43.000Z,30184,30101,Base,Ethereum,0x9dca277de925905ef919847b38d337ab26220ebea75ab6349826514eb907e2da,,0x3488d35b470735a3a90e1c13cea5d1041c89c23f,,,,0x9e059a54699a285714207b43b055483e78faac25,0xd56e4eab23cb81f43168f9f45211eb027b9ac7cc,0x554833698ae0fb22ecc90b01222903fd62ca4b47,0xa0af56164f02bdf9d75287ee77c568889f11d5f2,0xc2a0c36f5939a14966705c7cec813163faeea1f0,2,3,0x34a726c4db92f7cbdaa386ad6f525112fa4beece0c7ea8c522a14663a977306d,37117018,2025-10-21T05:09:43.000Z,6315995086539,6315995086539,6461762835435,6461762835435,6461762835435,0x5847e3bfcd7345b1cec5ac145b75be50fb35eaeaa91c7a04f7213eaf631b4ba1,23623774,2025-10-21T05:10:59.000Z,OFTReceived,,,,0x34a726c4db92f7cbdaa386ad6f525112fa4beece0c7ea8c522a14663a977306d,0x2cca08ae69e0c44b18a57ab2a87644234daebae4,110611790530514,DELIVERED,76,GUID,false,true,true,37117018_23623774,37117018_37117018
0xccd3065705b0c7a0b3e9d8f4422774d48cc999d7096ecd89d6a772a82278b3f1,37110723,2025-10-21T01:39:53.000Z,30184,30101,Base,Ethereum,0xb74fe300b9ae8e88ea42643a46d021ddb83c82db83d3424453819ac0f682e638,,0x3a23f943181408eac424116af7b7790c94cb97a5,,,,0x9e059a54699a285714207b43b055483e78faac25,0xcd37ca043f8479064e10635020c65ffc005d36f6,0xd56e4eab23cb81f43168f9f45211eb027b9ac7cc,0x133e9fb2d339d8428476a714b1113b024343811e,0x554833698ae0fb22ecc90b01222903fd62ca4b47,0x5b6735c66d97479ccd18294fc96b3084ecb2fa3f,0xa7b5189bca84cd304d8553977c7c614329750d99,0xb3ce0a5d132cd9bf965aba435e650c55edce0062,0xc2a0c36f5939a14966705c7cec813163faeea1f0,0xcdf31d62140204c08853b547e64707110fbc6680,0xdd7b5e1db4aafd5c8ec3b764efb8ed265aa5445b,0xeede111103535e473451311e26c3e6660b0f77e1,3,9,0xccd3065705b0c7a0b3e9d8f4422774d48cc999d7096ecd89d6a772a82278b3f1,37110723,2025-10-21T01:39:53.000Z,19333914324446,19155430261060,19333914324446,20137092609681,19780124482910,19780124482910,19333914324446,19155430261060,19780124482910,19155430261060,19155430261060,19155430261060,,,,,,,,0xccd3065705b0c7a0b3e9d8f4422774d48cc999d7096ecd89d6a772a82278b3f1,0x2cca08ae69e0c44b18a57ab2a87644234daebae4,128086742992554,SENT,N/A,NO_MATCH,false,true,false,,37110723_37110723
0x406fddccfd21f04b57d39821bcb9d01f0a757fbf866baea50b2f9bb11a657c86,37087236,2025-10-20T12:36:59.000Z,30184,30101,Base,Ethereum,0x6db3cdf1b511ee615b88edecdb57ad3046c9e5695ceec888a603f30335dc598f,,0x9ce3f4210dc06889ad5267ef0ce3ded4bd96dc50,,,,0x9e059a54699a285714207b43b055483e78faac25,0xcd37ca043f8479064e10635020c65ffc005d36f6,0xd56e4eab23cb81f43168f9f45211eb027b9ac7cc,0x133e9fb2d339d8428476a714b1113b024343811e,0x554833698ae0fb22ecc90b01222903fd62ca4b47,0x5b6735c66d97479ccd18294fc96b3084ecb2fa3f,0xa7b5189bca84cd304d8553977c7c614329750d99,0xb3ce0a5d132cd9bf965aba435e650c55edce0062,0xc2a0c36f5939a14966705c7cec813163faeea1f0,0xcdf31d62140204c08853b547e64707110fbc6680,0xdd7b5e1db4aafd5c8ec3b764efb8ed265aa5445b,0xeede111103535e473451311e26c3e6660b0f77e1,3,9,0x406fddccfd21f04b57d39821bcb9d01f0a757fbf866baea50b2f9bb11a657c86,37087236,2025-10-20T12:36:59.000Z,16507618977267,16355226302797,16507618977267,17193386012384,16888600663443,16888600663443,16507618977267,16355226302797,16888600663443,16355226302797,16355226302797,16355226302797,,,,,,,,0x406fddccfd21f04b57d39821bcb9d01f0a757fbf866baea50b2f9bb11a657c86,0x2cca08ae69e0c44b18a57ab2a87644234daebae4,122409018628914,SENT,N/A,NO_MATCH,false,true,false,,37087236_37087236
0x2959180c795a7a647e006a3fe34f520dd234b97e37167712edd1cdbda69cc6b1,37085515,2025-10-20T11:39:37.000Z,30184,30101,Base,Ethereum,0x29fbb42a52d2da2dea4d32d7dc6247948c54f3642d756c76bb729d88449a77fa,,0x3a23f943181408eac424116af7b7790c94cb97a5,,,,0x9e059a54699a285714207b43b055483e78faac25,0xcd37ca043f8479064e10635020c65ffc005d36f6,0xd56e4eab23cb81f43168f9f45211eb027b9ac7cc,0x133e9fb2d339d8428476a714b1113b024343811e,0x554833698ae0fb22ecc90b01222903fd62ca4b47,0x5b6735c66d97479ccd18294fc96b3084ecb2fa3f,0xa7b5189bca84cd304d8553977c7c614329750d99,0xb3ce0a5d132cd9bf965aba435e650c55edce0062,0xc2a0c36f5939a14966705c7cec813163faeea1f0,0xcdf31d62140204c08853b547e64707110fbc6680,0xdd7b5e1db4aafd5c8ec3b764efb8ed265aa5445b,0xeede111103535e473451311e26c3e6660b0f77e1,3,9,0x2959180c795a7a647e006a3fe34f520dd234b97e37167712edd1cdbda69cc6b1,37085515,2025-10-20T11:39:37.000Z,16507618977267,16355226302797,16507618977267,17193386012384,16888600663443,16888600663443,16507618977267,16355226302797,16888600663443,16355226302797,16355226302797,16355226302797,,,,,,,,0x2959180c795a7a647e006a3fe34f520dd234b97e37167712edd1cdbda69cc6b1,0x2cca08ae69e0c44b18a57ab2a87644234daebae4,122409018628914,SENT,N/A,NO_MATCH,false,true,false,,37085515_37085515
0x8f2198fdd12c9128334e1b5ac5517f8e6e9d672052ec2adfde26312170a81803,37069141,2025-10-20T02:33:49.000Z,30184,30101,Base,Ethereum,0x30669fcea545c097a782d15143b911ffa5d512eb20ded2caa99d88e24696558e,,0x1b98dd8875c2b56e39f0b02201cf5d235dddf1ba,,,,0x554833698ae0fb22ecc90b01222903fd62ca4b47,0x5b6735c66d97479ccd18294fc96b3084ecb2fa3f,0xc2a0c36f5939a14966705c7cec813163faeea1f0,,3,0,0x8f2198fdd12c9128334e1b5ac5517f8e6e9d672052ec2adfde26312170a81803,37069141,2025-10-20T02:33:49.000Z,2312520000000,2312520000000,2312520000000,,,,,,,,0x8f2198fdd12c9128334e1b5ac5517f8e6e9d672052ec2adfde26312170a81803,0x2cca08ae69e0c44b18a57ab2a87644234daebae4,18662786355726,SENT,N/A,NO_MATCH,true,false,false,,37069141_37069141
0x89ab9b8f0254afd593bf8330a31369e2288a50d3d925fdf4dc7496e5412a7d58,37068995,2025-10-20T02:28:57.000Z,30184,30101,Base,Ethereum,0xff800a93b9efb229ee11631a7d92a1684b0922d71d6fa680406c9ec31f4591ee,,0x1b98dd8875c2b56e39f0b02201cf5d235dddf1ba,,,,0x554833698ae0fb22ecc90b01222903fd62ca4b47,0x5b6735c66d97479ccd18294fc96b3084ecb2fa3f,0xc2a0c36f5939a14966705c7cec813163faeea1f0,,3,0,0x89ab9b8f0254afd593bf8330a31369e2288a50d3d925fdf4dc7496e5412a7d58,37068995,2025-10-20T02:28:57.000Z,2312520000000,2312520000000,2312520000000,,,,,,,,0x89ab9b8f0254afd593bf8330a31369e2288a50d3d925fdf4dc7496e5412a7d58,0x2cca08ae69e0c44b18a57ab2a87644234daebae4,18662786355726,SENT,N/A,NO_MATCH,true,false,false,,37068995_37068995
0xb5d8928a80a9abcd64ebc1181d5d3d9c317dd75c4c24cb58f03b2c7967d0b2ce,37049235,2025-10-19T15:30:17.000Z,30184,30101,Base,Ethereum,0x76548c9a5792d105763ffe5600382b0cbca4d2cf5f5df25371fbf7212369ade6,,0xeae5be3835191ebd198af53aa6541cc7de87d6e4,,,,0x554833698ae0fb22ecc90b01222903fd62ca4b47,0x5b6735c66d97479ccd18294fc96b3084ecb2fa3f,0xc2a0c36f5939a14966705c7cec813163faeea1f0,,3,0,0xb5d8928a80a9abcd64ebc1181d5d3d9c317dd75c4c24cb58f03b2c7967d0b2ce,37049235,2025-10-19T15:30:17.000Z,428175772467,428175772467,428175772467,,,,,,,,0xb5d8928a80a9abcd64ebc1181d5d3d9c317dd75c4c24cb58f03b2c7967d0b2ce,0x2cca08ae69e0c44b18a57ab2a87644234daebae4,5772854417407,SENT,N/A,NO_MATCH,true,false,false,,37049235_37049235
0xd16e1a2abd9bba78b763928aa9b182701ba61725609acfa1cc48be70eef2e0d4,37027026,2025-10-19T03:09:59.000Z,30184,30101,Base,Ethereum,0xaecb1de27449644d9a805db0a4c0dca931adc1267057ae82014b5031e6ecc880,,0x1b98dd8875c2b56e39f0b02201cf5d235dddf1ba,,,,0x554833698ae0fb22ecc90b01222903fd62ca4b47,0x5b6735c66d97479ccd18294fc96b3084ecb2fa3f,0xc2a0c36f5939a14966705c7cec813163faeea1f0,,3,0,0xd16e1a2abd9bba78b763928aa9b182701ba61725609acfa1cc48be70eef2e0d4,37027026,2025-10-19T03:09:59.000Z,2302152000000,2302152000000,2302152000000,,,,,,,,0xd16e1a2abd9bba78b763928aa9b182701ba61725609acfa1cc48be70eef2e0d4,0x2cca08ae69e0c44b18a57ab2a87644234daebae4,18660126355726,SENT,N/A,NO_MATCH,true,false,false,,37027026_37027026
0xa4237ed480a7d8b76518a0af1c88a38c951e64df6dee446fb26c50fee847bb7b,37007333,2025-10-18T16:13:33.000Z,30184,30101,Base,Ethereum,0xcabf83c339ddf5cb23724ea5945e7ffa0f90a20a86a4f3042e3a92b2720fccd0,,0x1b98dd8875c2b56e39f0b02201cf5d235dddf1ba,,,,0x554833698ae0fb22ecc90b01222903fd62ca4b47,0x5b6735c66d97479ccd18294fc96b3084ecb2fa3f,0xc2a0c36f5939a14966705c7cec813163faeea1f0,,3,0,0xa4237ed480a7d8b76518a0af1c88a38c951e64df6dee446fb26c50fee847bb7b,37007333,2025-10-18T16:13:33.000Z,2306616000000,2306616000000,2306616000000,,,,,,,,0xa4237ed480a7d8b76518a0af1c88a38c951e64df6dee446fb26c50fee847bb7b,0x2cca08ae69e0c44b18a57ab2a87644234daebae4,18660856355726,SENT,N/A,NO_MATCH,true,false,false,,37007333_37007333
0x9bd102f035f9cafea64242c162d3c79e3b0092a60282d89ca425a73f1c923fe4,37006693,2025-10-18T15:52:13.000Z,30184,30101,Base,Ethereum,0xe31d522404a5eb1f3d601b210e14f0a56fd1c3fa2e86ec3ca2274bb32b144d38,,0x1b98dd8875c2b56e39f0b02201cf5d235dddf1ba,,,,0x554833698ae0fb22ecc90b01222903fd62ca4b47,0x5b6735c66d97479ccd18294fc96b3084ecb2fa3f,0xc2a0c36f5939a14966705c7cec813163faeea1f0,,3,0,0x9bd102f035f9cafea64242c162d3c79e3b0092a60282d89ca425a73f1c923fe4,37006693,2025-10-18T15:52:13.000Z,2311824000000,2311824000000,2311824000000,,,,,,,,0x9bd102f035f9cafea64242c162d3c79e3b0092a60282d89ca425a73f1c923fe4,0x2cca08ae69e0c44b18a57ab2a87644234daebae4,18662206355726,SENT,N/A,NO_MATCH,true,false,false,,37006693_37006693
0x1d892109e9217928e6c64715c0940d05b22312ed605082ac40c32b1813512932,36970955,2025-10-17T20:00:57.000Z,30184,30101,Base,Ethereum,0x82e64843ed1f56cbbdb992198875c191f59b5d7a03e3272898c7a37633ce7e27,,0x7c360c43ad0ce1d4d5f9cb1079c641930aebf6a4,,,,0x554833698ae0fb22ecc90b01222903fd62ca4b47,0x5b6735c66d97479ccd18294fc96b3084ecb2fa3f,0xc2a0c36f5939a14966705c7cec813163faeea1f0,,3,0,0x1d892109e9217928e6c64715c0940d05b22312ed605082ac40c32b1813512932,36970955,2025-10-17T20:00:57.000Z,2345808000000,2345808000000,2345808000000,,,,,,,,0x1d892109e9217928e6c64715c0940d05b22312ed605082ac40c32b1813512932,0x2cca08ae69e0c44b18a57ab2a87644234daebae4,19819522413379,SENT,N/A,NO_MATCH,true,false,false,,36970955_36970955
0xdb44c1a8023229cb65b5330b65c461b57931dd583a35c69a66a3e51c1316aa41,36961944,2025-10-17T15:00:35.000Z,30184,30101,Base,Ethereum,0x7b69d7058932f91649b2b5cfdeb79c9a3130cbe8531f6901d121290e683b7e84,,0x36c74ed01f8df60172b7a6ce885400b9bec653a7,,,,0x554833698ae0fb22ecc90b01222903fd62ca4b47,0x5b6735c66d97479ccd18294fc96b3084ecb2fa3f,0xc2a0c36f5939a14966705c7cec813163faeea1f0,,3,0,0xdb44c1a8023229cb65b5330b65c461b57931dd583a35c69a66a3e51c1316aa41,36961944,2025-10-17T15:00:35.000Z,2025875942454,2025875942454,2025875942454,,,,,,,,0xdb44c1a8023229cb65b5330b65c461b57931dd583a35c69a66a3e51c1316aa41,0x2cca08ae69e0c44b18a57ab2a87644234daebae4,15273916731504,SENT,N/A,NO_MATCH,true,false,false,,36961944_36961944
0x20d108c770db9255d89379a486fadf99b0560f88d4377227c2c885355932bf5b,36939853,2025-10-17T02:44:13.000Z,30184,30101,Base,Ethereum,0x6711fdf450d2caab8aef48e828aaa68a82d8ba52e2c775b6eb714cf1836df7ee,,0x1b98dd8875c2b56e39f0b02201cf5d235dddf1ba,,,,0x554833698ae0fb22ecc90b01222903fd62ca4b47,0x5b6735c66d97479ccd18294fc96b3084ecb2fa3f,0xc2a0c36f5939a14966705c7cec813163faeea1f0,,3,0,0x20d108c770db9255d89379a486fadf99b0560f88d4377227c2c885355932bf5b,36939853,2025-10-17T02:44:13.000Z,2371748940000,2371748940000,2371748940000,,,,,,,,0x20d108c770db9255d89379a486fadf99b0560f88d4377227c2c885355932bf5b,0x2cca08ae69e0c44b18a57ab2a87644234daebae4,18506586183976,SENT,N/A,NO_MATCH,true,false,false,,36939853_36939853
0x9dce921c0eeda8c9ea99d73cb332ad666a55ab4a0e364e1e1c3d9c1e5b356508,36939734,2025-10-17T02:40:15.000Z,30184,30101,Base,Ethereum,0x7f73c966f21c31fa87833fb15e7788bf2db61e8d12904641973f5f567357940d,,0x1b98dd8875c2b56e39f0b02201cf5d235dddf1ba,,,,0x554833698ae0fb22ecc90b01222903fd62ca4b47,0x5b6735c66d97479ccd18294fc96b3084ecb2fa3f,0xc2a0c36f5939a14966705c7cec813163faeea1f0,,3,0,0x9dce921c0eeda8c9ea99d73cb332ad666a55ab4a0e364e1e1c3d9c1e5b356508,36939734,2025-10-17T02:40:15.000Z,2301972000000,2301972000000,2301972000000,,,,,,,,0x9dce921c0eeda8c9ea99d73cb332ad666a55ab4a0e364e1e1c3d9c1e5b356508,0x2cca08ae69e0c44b18a57ab2a87644234daebae4,18482751037976,SENT,N/A,NO_MATCH,true,false,false,,36939734_36939734
0x5d8727c48b5ed00661464a4520ee61264f187fce0301688d3d213187131d0e63,36921933,2025-10-16T16:46:53.000Z,30184,30101,Base,Ethereum,0x6e13529759593fa9e144ea1c10542584bbf92ee27a5e3ef06ce5b9047444fe51,,0xca74f404e0c7bfa35b13b511097df966d5a65597,,,,0x9e059a54699a285714207b43b055483e78faac25,0xd56e4eab23cb81f43168f9f45211eb027b9ac7cc,0x554833698ae0fb22ecc90b01222903fd62ca4b47,0xa0af56164f02bdf9d75287ee77c568889f11d5f2,0xc2a0c36f5939a14966705c7cec813163faeea1f0,2,3,0x5d8727c48b5ed00661464a4520ee61264f187fce0301688d3d213187131d0e63,36921933,2025-10-16T16:46:53.000Z,310484038659438,310484038659438,317649743946318,317649743946318,317649743946318,0xc4bf2bb06aaceec2c1ed98ad64cf02d93b689d4180dba85cc1a292ed2aa78c0d,23591510,2025-10-16T16:48:11.000Z,OFTReceived,,,,0x5d8727c48b5ed00661464a4520ee61264f187fce0301688d3d213187131d0e63,0x2cca08ae69e0c44b18a57ab2a87644234daebae4,1494061810971283,DELIVERED,78,GUID,false,true,true,36921933_23591510,36921933_36921933
0xa8d940cb2a1c70293791c84588277541d764f46e4dc7c546f82ddf2978ed7f93,36919728,2025-10-16T15:33:23.000Z,30184,30101,Base,Ethereum,0x071b453da4e4ec34672acc97cc8e169570d69b657779b565de2f84f42c6dd5c5,,0x869a2c28a51699abeef1e65052b8df1523d5fa98,,,,0x554833698ae0fb22ecc90b01222903fd62ca4b47,0x5b6735c66d97479ccd18294fc96b3084ecb2fa3f,0xc2a0c36f5939a14966705c7cec813163faeea1f0,,3,0,0xa8d940cb2a1c70293791c84588277541d764f46e4dc7c546f82ddf2978ed7f93,36919728,2025-10-16T15:33:23.000Z,7534304048400,7534304048400,7534304048400,,,,,,,,0xa8d940cb2a1c70293791c84588277541d764f46e4dc7c546f82ddf2978ed7f93,0x2cca08ae69e0c44b18a57ab2a87644234daebae4,20316133946976,SENT,N/A,NO_MATCH,true,false,false,,36919728_36919728
0x83b94dd60cf1501b62ef96f16b1f3e04c1d18a16c35bc5a55ef9ec180eaa64fb,36919550,2025-10-16T15:27:27.000Z,30184,30101,Base,Ethereum,0x2d56e6a0085fe4c367d13a20d22170ebd67c919fe926575988cbef8957b9f700,,0x6a76bb5854a154a56e9a9a7f4f5c38d66e0cc51b,,,,0x554833698ae0fb22ecc90b01222903fd62ca4b47,0x5b6735c66d97479ccd18294fc96b3084ecb2fa3f,0xc2a0c36f5939a14966705c7cec813163faeea1f0,,3,0,0x83b94dd60cf1501b62ef96f16b1f3e04c1d18a16c35bc5a55ef9ec180eaa64fb,36919550,2025-10-16T15:27:27.000Z,3949202304000,3949202304000,3949202304000,,,,,,,,0x83b94dd60cf1501b62ef96f16b1f3e04c1d18a16c35bc5a55ef9ec180eaa64fb,0x2cca08ae69e0c44b18a57ab2a87644234daebae4,19054385219976,SENT,N/A,NO_MATCH,true,false,false,,36919550_36919550
0xb6da6b993618b5bb6b3684d185d67357966d18ec33948fcfbc160842bab98b00,36919242,2025-10-16T15:17:11.000Z,30184,30101,Base,Ethereum,0x42e5ae4a94e5e0f6932b00246725db7edfa17c25365f508f89edffd9e95c4ac6,,0x62590dd49bcfbf0af0d43f3d82bc5fe309d7f858,,,,0x554833698ae0fb22ecc90b01222903fd62ca4b47,0x5b6735c66d97479ccd18294fc96b3084ecb2fa3f,0xc2a0c36f5939a14966705c7cec813163faeea1f0,,3,0,0xb6da6b993618b5bb6b3684d185d67357966d18ec33948fcfbc160842bab98b00,36919242,2025-10-16T15:17:11.000Z,6831686707200,6831686707200,6831686707200,,,,,,,,0xb6da6b993618b5bb6b3684d185d67357966d18ec33948fcfbc160842bab98b00,0x2cca08ae69e0c44b18a57ab2a87644234daebae4,20074452985976,SENT,N/A,NO_MATCH,true,false,false,,36919242_36919242
0x5cee2ba522fd16a074ed62029503f6bfcb673e108ff2ecbeed0a404861e10afd,36918972,2025-10-16T15:08:11.000Z,30184,30101,Base,Ethereum,0xfd35c078d6c46db2c4afea25ec79ee0e8782640f7d7b096b2c7d189630e878b4,,0x9b0bc6a6426394ab3594a60a6dbf697d478ae09d,,,,0x554833698ae0fb22ecc90b01222903fd62ca4b47,0x5b6735c66d97479ccd18294fc96b3084ecb2fa3f,0xc2a0c36f5939a14966705c7cec813163faeea1f0,,3,0,0x5cee2ba522fd16a074ed62029503f6bfcb673e108ff2ecbeed0a404861e10afd,36918972,2025-10-16T15:08:11.000Z,10923569604000,10923569604000,10923569604000,,,,,,,,0x5cee2ba522fd16a074ed62029503f6bfcb673e108ff2ecbeed0a404861e10afd,0x2cca08ae69e0c44b18a57ab2a87644234daebae4,21509551971976,SENT,N/A,NO_MATCH,true,false,false,,36918972_36918972
0xb3ab0f49fcd07e1493c69f65c885b9af54322dcd96c8ec981bb27d51dc20f796,36918010,2025-10-16T14:36:07.000Z,30184,30101,Base,Ethereum,0x3ed66124358148ac95647b5584949642afd142776c87d5f9305a5896b7adc315,,0xc168c85ef354103ecb012199553cf24dd588a9a7,,,,0x554833698ae0fb22ecc90b01222903fd62ca4b47,0x5b6735c66d97479ccd18294fc96b3084ecb2fa3f,0xc2a0c36f5939a14966705c7cec813163faeea1f0,,3,0,0xb3ab0f49fcd07e1493c69f65c885b9af54322dcd96c8ec981bb27d51dc20f796,36918010,2025-10-16T14:36:07.000Z,12505507608000,12505507608000,12505507608000,,,,,,,,0xb3ab0f49fcd07e1493c69f65c885b9af54322dcd96c8ec981bb27d51dc20f796,0x2cca08ae69e0c44b18a57ab2a87644234daebae4,22070929181976,SENT,N/A,NO_MATCH,true,false,false,,36918010_36918010
0x890252e1e5c7c8739da342b7fc35a1f209380a0d077792a6f993d4e2947caaae,36894893,2025-10-16T01:45:33.000Z,30184,30101,Base,Ethereum,0xdc9ee8dfe871962319fa0c7dfd2b216d1e3606b274209c7918c18451e9adf3f3,,0x2ddd618f40b6310023d0d20d531d13220e5787fd,,,,0x9e059a54699a285714207b43b055483e78faac25,0xcd37ca043f8479064e10635020c65ffc005d36f6,0xd56e4eab23cb81f43168f9f45211eb027b9ac7cc,0x133e9fb2d339d8428476a714b1113b024343811e,0x554833698ae0fb22ecc90b01222903fd62ca4b47,0x5b6735c66d97479ccd18294fc96b3084ecb2fa3f,0xa7b5189bca84cd304d8553977c7c614329750d99,0xb3ce0a5d132cd9bf965aba435e650c55edce0062,0xc2a0c36f5939a14966705c7cec813163faeea1f0,0xcdf31d62140204c08853b547e64707110fbc6680,0xdd7b5e1db4aafd5c8ec3b764efb8ed265aa5445b,0xeede111103535e473451311e26c3e6660b0f77e1,3,9,0x890252e1e5c7c8739da342b7fc35a1f209380a0d077792a6f993d4e2947caaae,36894893,2025-10-16T01:45:33.000Z,11506823123342,11400596080372,11506823123342,11984844816705,11772390730766,11772390730766,11506823123342,11400596080372,11772390730766,11400596080372,11400596080372,11400596080372,,,,,,,,0x890252e1e5c7c8739da342b7fc35a1f209380a0d077792a6f993d4e2947caaae,0x2cca08ae69e0c44b18a57ab2a87644234daebae4,111476829272603,SENT,N/A,NO_MATCH,false,true,false,,36894893_36894893
0xbd36c4fb2bf62a6f8e54236fd854680f25e353310edebe402a39933217bfb3da,36894564,2025-10-16T01:34:35.000Z,30184,30101,Base,Ethereum,0x5ec56d3469cbe2c24abd1a06d7c1c671b895f925abce0d0e2727abd788089c7b,,0x1b98dd8875c2b56e39f0b02201cf5d235dddf1ba,,,,0x554833698ae0fb22ecc90b01222903fd62ca4b47,0x5b6735c66d97479ccd18294fc96b3084ecb2fa3f,0xc2a0c36f5939a14966705c7cec813163faeea1f0,,3,0,0xbd36c4fb2bf62a6f8e54236fd854680f25e353310edebe402a39933217bfb3da,36894564,2025-10-16T01:34:35.000Z,2361096000000,2361096000000,2361096000000,,,,,,,,0xbd36c4fb2bf62a6f8e54236fd854680f25e353310edebe402a39933217bfb3da,0x2cca08ae69e0c44b18a57ab2a87644234daebae4,18499131037976,SENT,N/A,NO_MATCH,true,false,false,,36894564_36894564
0xa512f7cfb79453144ea2fc68f52fa07ee54b35bdb1b9fdd6a9911f1219d08f49,36894361,2025-10-16T01:27:49.000Z,30184,30101,Base,Ethereum,0x08e35346731fdef2843421a95d49a25715925922d8d6059ff4b710a473cb4fb0,,0x1b98dd8875c2b56e39f0b02201cf5d235dddf1ba,,,,0x554833698ae0fb22ecc90b01222903fd62ca4b47,0x5b6735c66d97479ccd18294fc96b3084ecb2fa3f,0xc2a0c36f5939a14966705c7cec813163faeea1f0,,3,0,0xa512f7cfb79453144ea2fc68f52fa07ee54b35bdb1b9fdd6a9911f1219d08f49,36894361,2025-10-16T01:27:49.000Z,2361096000000,2361096000000,2361096000000,,,,,,,,0xa512f7cfb79453144ea2fc68f52fa07ee54b35bdb1b9fdd6a9911f1219d08f49,0x2cca08ae69e0c44b18a57ab2a87644234daebae4,18499131037976,SENT,N/A,NO_MATCH,true,false,false,,36894361_36894361
0x1f273c7da0588c4e5abf657a6ea40136b8f39d527c402d77ae6bddd8b3b9ddb1,36893396,2025-10-16T00:55:39.000Z,30184,30101,Base,Ethereum,0x78bf113c9ff28d4306a17b22a770137d5ddf5de6ff98ad7f6a8e713aec8e9d67,,0xe83f75907fb4c575414fa6f5cfe8cef24dc5870c,,,,0x9e059a54699a285714207b43b055483e78faac25,0xd56e4eab23cb81f43168f9f45211eb027b9ac7cc,0x554833698ae0fb22ecc90b01222903fd62ca4b47,0xa0af56164f02bdf9d75287ee77c568889f11d5f2,0xc2a0c36f5939a14966705c7cec813163faeea1f0,2,3,0x1f273c7da0588c4e5abf657a6ea40136b8f39d527c402d77ae6bddd8b3b9ddb1,36893396,2025-10-16T00:55:39.000Z,11506823123342,11506823123342,11772390730766,11772390730766,11772390730766,0x8ae86f0807f6919b1066f83f8e16de93bf676a7f02f7586d147b716740105f20,23586802,2025-10-16T00:56:47.000Z,OFTReceived,,,,0x1f273c7da0588c4e5abf657a6ea40136b8f39d527c402d77ae6bddd8b3b9ddb1,0x2cca08ae69e0c44b18a57ab2a87644234daebae4,140457421352603,DELIVERED,68,GUID,false,true,true,36893396_23586802,36893396_36893396
0xb2626fcd9d33643c3fabe147f5665eaeac229465fa0245414755bbdde46798e1,36863528,2025-10-15T08:20:03.000Z,30184,30101,Base,Ethereum,0x093ce567652b0a5f403a1c684d345b014e58a73709802a93583df933f3e7dbbc,,0x6354d634250e4d206c58444bf2589efdd9731f17,,,,0x554833698ae0fb22ecc90b01222903fd62ca4b47,0x5b6735c66d97479ccd18294fc96b3084ecb2fa3f,0xc2a0c36f5939a14966705c7cec813163faeea1f0,,3,0,0xb2626fcd9d33643c3fabe147f5665eaeac229465fa0245414755bbdde46798e1,36863528,2025-10-15T08:20:03.000Z,2322744000000,2322744000000,2322744000000,,,,,,,,0xb2626fcd9d33643c3fabe147f5665eaeac229465fa0245414755bbdde46798e1,0x2cca08ae69e0c44b18a57ab2a87644234daebae4,18488101037976,SENT,N/A,NO_MATCH,true,false,false,,36863528_36863528
0x5b9321b26dc4860df4c0ea1fffd9234b82618843ef2fb066eafd5201828e1e90,36863515,2025-10-15T08:19:37.000Z,30184,30101,Base,Ethereum,0x194440699e158ef6cf3c377644048a7033e6c7c5da74a18bc2acc4eead07732f,,0x54b55686e61bcf56e8dea49f348867537918eb1c,,,,0x554833698ae0fb22ecc90b01222903fd62ca4b47,0x5b6735c66d97479ccd18294fc96b3084ecb2fa3f,0xc2a0c36f5939a14966705c7cec813163faeea1f0,,3,0,0x5b9321b26dc4860df4c0ea1fffd9234b82618843ef2fb066eafd5201828e1e90,36863515,2025-10-15T08:19:37.000Z,2322744000000,2322744000000,2322744000000,,,,,,,,0x5b9321b26dc4860df4c0ea1fffd9234b82618843ef2fb066eafd5201828e1e90,0x2cca08ae69e0c44b18a57ab2a87644234daebae4,18488101037976,SENT,N/A,NO_MATCH,true,false,false,,36863515_36863515
0xe773bc6d10f5808306e82a3e3e057f3560011904b4d3747bb556e93f8bb9c2c5,36863463,2025-10-15T08:17:53.000Z,30184,30101,Base,Ethereum,0x65f5ca900087354415140562f3c381d9868830ce1f4d080b5d2e255b371c2ec8,,0xaace05a6f8cb73f5f61ee9cece81b7aa1bd920fe,,,,0x554833698ae0fb22ecc90b01222903fd62ca4b47,0x5b6735c66d97479ccd18294fc96b3084ecb2fa3f,0xc2a0c36f5939a14966705c7cec813163faeea1f0,,3,0,0xe773bc6d10f5808306e82a3e3e057f3560011904b4d3747bb556e93f8bb9c2c5,36863463,2025-10-15T08:17:53.000Z,2322744000000,2322744000000,2322744000000,,,,,,,,0xe773bc6d10f5808306e82a3e3e057f3560011904b4d3747bb556e93f8bb9c2c5,0x2cca08ae69e0c44b18a57ab2a87644234daebae4,18488101037976,SENT,N/A,NO_MATCH,true,false,false,,36863463_36863463
0x8dd5691db401494d2998fbd9917b940584f7241005e20cd52b2cb7297307a11f,36861859,2025-10-15T07:24:25.000Z,30184,30101,Base,Ethereum,0x90f819b9a0d64a6e314b4a951591989ee66349afbba2cce4fef1b30a613bcf28,,0x1b98dd8875c2b56e39f0b02201cf5d235dddf1ba,,,,0x554833698ae0fb22ecc90b01222903fd62ca4b47,0x5b6735c66d97479ccd18294fc96b3084ecb2fa3f,0xc2a0c36f5939a14966705c7cec813163faeea1f0,,3,0,0x8dd5691db401494d2998fbd9917b940584f7241005e20cd52b2cb7297307a11f,36861859,2025-10-15T07:24:25.000Z,2306940000000,2306940000000,2306940000000,,,,,,,,0x8dd5691db401494d2998fbd9917b940584f7241005e20cd52b2cb7297307a11f,0x2cca08ae69e0c44b18a57ab2a87644234daebae4,18483901037976,SENT,N/A,NO_MATCH,true,false,false,,36861859_36861859
0xf7b4944ce3cd84426f65589a1af60065eb5ec9a5d62c157133d9f7bf22a7a275,36861571,2025-10-15T07:14:49.000Z,30184,30101,Base,Ethereum,0xae2b7931d0724466fe4baf785f4be34e968bd443dcff0d8cdf241e254361df24,,0x1b98dd8875c2b56e39f0b02201cf5d235dddf1ba,,,,0x554833698ae0fb22ecc90b01222903fd62ca4b47,0x5b6735c66d97479ccd18294fc96b3084ecb2fa3f,0xc2a0c36f5939a14966705c7cec813163faeea1f0,,3,0,0xf7b4944ce3cd84426f65589a1af60065eb5ec9a5d62c157133d9f7bf22a7a275,36861571,2025-10-15T07:14:49.000Z,2300760000000,2300760000000,2300760000000,,,,,,,,0xf7b4944ce3cd84426f65589a1af60065eb5ec9a5d62c157133d9f7bf22a7a275,0x2cca08ae69e0c44b18a57ab2a87644234daebae4,18481741037976,SENT,N/A,NO_MATCH,true,false,false,,36861571_36861571
0xda429a4f16ea77404524b4e81518aac25ff8cdd70105e6c7af4ea8d3cb5f6441,36831504,2025-10-14T14:32:35.000Z,30184,30101,Base,Ethereum,0xe92781bb0240c7d808beba9ca522c8e330c9820b357e693c273690e7729333f0,,0x9b0ac8f5f8bf8cc2cee77bce4178b26acb676e27,,,,0x9e059a54699a285714207b43b055483e78faac25,0xcd37ca043f8479064e10635020c65ffc005d36f6,0xd56e4eab23cb81f43168f9f45211eb027b9ac7cc,0x133e9fb2d339d8428476a714b1113b024343811e,0x554833698ae0fb22ecc90b01222903fd62ca4b47,0x5b6735c66d97479ccd18294fc96b3084ecb2fa3f,0xa7b5189bca84cd304d8553977c7c614329750d99,0xb3ce0a5d132cd9bf965aba435e650c55edce0062,0xc2a0c36f5939a14966705c7cec813163faeea1f0,0xcdf31d62140204c08853b547e64707110fbc6680,0xdd7b5e1db4aafd5c8ec3b764efb8ed265aa5445b,0xeede111103535e473451311e26c3e6660b0f77e1,3,9,0xda429a4f16ea77404524b4e81518aac25ff8cdd70105e6c7af4ea8d3cb5f6441,36831504,2025-10-14T14:32:35.000Z,106708976876854,105723876215235,106708976876854,111141929854141,109171728530902,109171728530902,106708976876854,105723876215235,109171728530902,105723876215235,105723876215235,105723876215235,,,,,,,,0xda429a4f16ea77404524b4e81518aac25ff8cdd70105e6c7af4ea8d3cb5f6441,0x2cca08ae69e0c44b18a57ab2a87644234daebae4,302727750156323,SENT,N/A,NO_MATCH,false,true,false,,36831504_36831504
0x1cbcfe58c3698d99f8b515e820035f18c09f4d6a2fd6196b34901722cf6a91c1,36812097,2025-10-14T03:45:41.000Z,30184,30101,Base,Ethereum,0xfdbcde3803eff02e7d0a162d13e2eee3646368754b460921dda9a6510554e4bd,,0x1b98dd8875c2b56e39f0b02201cf5d235dddf1ba,,,,0x554833698ae0fb22ecc90b01222903fd62ca4b47,0x5b6735c66d97479ccd18294fc96b3084ecb2fa3f,0xc2a0c36f5939a14966705c7cec813163faeea1f0,,3,0,0x1cbcfe58c3698d99f8b515e820035f18c09f4d6a2fd6196b34901722cf6a91c1,36812097,2025-10-14T03:45:41.000Z,2374348800000,2374348800000,2374348800000,,,,,,,,0x1cbcfe58c3698d99f8b515e820035f18c09f4d6a2fd6196b34901722cf6a91c1,0x2cca08ae69e0c44b18a57ab2a87644234daebae4,17340426243046,SENT,N/A,NO_MATCH,true,false,false,,36812097_36812097
0x632cf131a32982df508b90d2c248cdf0eb88a0dcdd9e92a2e9f5184462f37184,36810923,2025-10-14T03:06:33.000Z,30184,30101,Base,Ethereum,0x1cb2da5030c312d17fa2fbc6e1c2bdcb0de5b13c2b1df7e0a280ded874a5e703,,0x1b98dd8875c2b56e39f0b02201cf5d235dddf1ba,,,,0x554833698ae0fb22ecc90b01222903fd62ca4b47,0x5b6735c66d97479ccd18294fc96b3084ecb2fa3f,0xc2a0c36f5939a14966705c7cec813163faeea1f0,,3,0,0x632cf131a32982df508b90d2c248cdf0eb88a0dcdd9e92a2e9f5184462f37184,36810923,2025-10-14T03:06:33.000Z,4572715014000,4572715014000,4572715014000,,,,,,,,0x632cf131a32982df508b90d2c248cdf0eb88a0dcdd9e92a2e9f5184462f37184,0x2cca08ae69e0c44b18a57ab2a87644234daebae4,18115809178046,SENT,N/A,NO_MATCH,true,false,false,,36810923_36810923
0xe574fff9a8d03e415756ab4dfac55b0d10a634051dc3ec948361a89b165c6641,36798519,2025-10-13T20:13:05.000Z,30184,30101,Base,Ethereum,0x2832033bb13adf8cf7ac762dc014b846807a04e8d7265c4f1e810ccc2a169f5d,,0x9a018e5dfbbf40f6102ac0d707f8b68166bd5685,,,,0x9e059a54699a285714207b43b055483e78faac25,0xcd37ca043f8479064e10635020c65ffc005d36f6,0xd56e4eab23cb81f43168f9f45211eb027b9ac7cc,0x133e9fb2d339d8428476a714b1113b024343811e,0x554833698ae0fb22ecc90b01222903fd62ca4b47,0x5b6735c66d97479ccd18294fc96b3084ecb2fa3f,0xa7b5189bca84cd304d8553977c7c614329750d99,0xb3ce0a5d132cd9bf965aba435e650c55edce0062,0xc2a0c36f5939a14966705c7cec813163faeea1f0,0xcdf31d62140204c08853b547e64707110fbc6680,0xdd7b5e1db4aafd5c8ec3b764efb8ed265aa5445b,0xeede111103535e473451311e26c3e6660b0f77e1,3,9,0xe574fff9a8d03e415756ab4dfac55b0d10a634051dc3ec948361a89b165c6641,36798519,2025-10-13T20:13:05.000Z,39657565341231,39291460304905,39657565341231,41305038004700,40572827932047,40572827932047,39657565341231,39291460304905,40572827932047,39291460304905,39291460304905,39291460304905,,,,,,,,0xe574fff9a8d03e415756ab4dfac55b0d10a634051dc3ec948361a89b165c6641,0x2cca08ae69e0c44b18a57ab2a87644234daebae4,162194312554712,SENT,N/A,NO_MATCH,false,true,false,,36798519_36798519
0xc38c20c50071135785e54da8a92ec82f2abb660393352e55b4d0ace50105acd4,36795246,2025-10-13T18:23:59.000Z,30184,30101,Base,Ethereum,0xee674ea24587e6864e1e4bfc2ce49f809d55d2d51ffe437056ae301a793bf3d6,,0xeae5be3835191ebd198af53aa6541cc7de87d6e4,,,,0x554833698ae0fb22ecc90b01222903fd62ca4b47,0x5b6735c66d97479ccd18294fc96b3084ecb2fa3f,0xc2a0c36f5939a14966705c7cec813163faeea1f0,,3,0,0xc38c20c50071135785e54da8a92ec82f2abb660393352e55b4d0ace50105acd4,36795246,2025-10-13T18:23:59.000Z,2941259126400,2941259126400,2941259126400,,,,,,,,0xc38c20c50071135785e54da8a92ec82f2abb660393352e55b4d0ace50105acd4,0x2cca08ae69e0c44b18a57ab2a87644234daebae4,18603975897927,SENT,N/A,NO_MATCH,true,false,false,,36795246_36795246
0x40e4d0744306effd692a73e4d9d04e3483c9d5b64bf70b595d8c2a9b827b76d6,36788943,2025-10-13T14:53:53.000Z,30184,30101,Base,Ethereum,0xfd2639ba19e1e4ffd5fe3de6148e445e9f71d531328b0a9ee15481d05506b960,,0x446c616ce12c7213e3ce188ab2f9def2a3c20712,,,,0x9e059a54699a285714207b43b055483e78faac25,0xcd37ca043f8479064e10635020c65ffc005d36f6,0xd56e4eab23cb81f43168f9f45211eb027b9ac7cc,0x133e9fb2d339d8428476a714b1113b024343811e,0x554833698ae0fb22ecc90b01222903fd62ca4b47,0x5b6735c66d97479ccd18294fc96b3084ecb2fa3f,0xa7b5189bca84cd304d8553977c7c614329750d99,0xb3ce0a5d132cd9bf965aba435e650c55edce0062,0xc2a0c36f5939a14966705c7cec813163faeea1f0,0xcdf31d62140204c08853b547e64707110fbc6680,0xdd7b5e1db4aafd5c8ec3b764efb8ed265aa5445b,0xeede111103535e473451311e26c3e6660b0f77e1,3,9,0x40e4d0744306effd692a73e4d9d04e3483c9d5b64bf70b595d8c2a9b827b76d6,36788943,2025-10-13T14:53:53.000Z,131146929308892,129936225855324,131146929308892,136595094849948,134173687942812,134173687942812,131146929308892,129936225855324,134173687942812,129936225855324,129936225855324,129936225855324,,,,,,,,0x40e4d0744306effd692a73e4d9d04e3483c9d5b64bf70b595d8c2a9b827b76d6,0x2cca08ae69e0c44b18a57ab2a87644234daebae4,351326825127236,SENT,N/A,NO_MATCH,false,true,false,,36788943_36788943
0xc8abdb9338f0310b1d28e355838decca03be50c470b786224b355253fb84d03f,36782757,2025-10-13T11:27:41.000Z,30184,30101,Base,Ethereum,0x623981ab19e2ef295f3baad9dfee2e055541053ffa19c6e6b75548e0568294c8,,0x3488d35b470735a3a90e1c13cea5d1041c89c23f,,,,0x9e059a54699a285714207b43b055483e78faac25,0xd56e4eab23cb81f43168f9f45211eb027b9ac7cc,0x554833698ae0fb22ecc90b01222903fd62ca4b47,0xa0af56164f02bdf9d75287ee77c568889f11d5f2,0xc2a0c36f5939a14966705c7cec813163faeea1f0,2,3,0xc8abdb9338f0310b1d28e355838decca03be50c470b786224b355253fb84d03f,36782757,2025-10-13T11:27:41.000Z,33328096619798,33328096619798,34097280501782,34097280501782,34097280501782,0xdd9ee81353a1af28680b885cd7e75e0f0ba1e843f75bcb4c086012de810b5938,23568503,2025-10-13T11:30:11.000Z,OFTReceived,,,,0xc8abdb9338f0310b1d28e355838decca03be50c470b786224b355253fb84d03f,0x2cca08ae69e0c44b18a57ab2a87644234daebae4,200604031659156,DELIVERED,150,GUID,false,true,true,36782757_23568503,36782757_36782757
0xc55b8533372ecbe85f24d50a3116387052b26a7828830dc78edc19cd68e75c4c,36764536,2025-10-13T01:20:19.000Z,30184,30101,Base,Ethereum,0xa2e01c02ee9e407ae538bee2596a67519cb0159b8d6daf943c72f02ceb693626,,0x1b98dd8875c2b56e39f0b02201cf5d235dddf1ba,,,,0x554833698ae0fb22ecc90b01222903fd62ca4b47,0x5b6735c66d97479ccd18294fc96b3084ecb2fa3f,0xc2a0c36f5939a14966705c7cec813163faeea1f0,,3,0,0xc55b8533372ecbe85f24d50a3116387052b26a7828830dc78edc19cd68e75c4c,36764536,2025-10-13T01:20:19.000Z,3270530790000,3270530790000,3270530790000,,,,,,,,0xc55b8533372ecbe85f24d50a3116387052b26a7828830dc78edc19cd68e75c4c,0x2cca08ae69e0c44b18a57ab2a87644234daebae4,18725252571927,SENT,N/A,NO_MATCH,true,false,false,,36764536_36764536
0xd9ea2174973f41ecd29b57cdded37cf09c9ec8fd4a010e9a206fbaf8781845b9,36764350,2025-10-13T01:14:07.000Z,30184,30101,Base,Ethereum,0xca3661f9b810cda5f3cedb4d0ed7cd92f6abb350035fc6d3d250079fad0b89b7,,0x1b98dd8875c2b56e39f0b02201cf5d235dddf1ba,,,,0x554833698ae0fb22ecc90b01222903fd62ca4b47,0x5b6735c66d97479ccd18294fc96b3084ecb2fa3f,0xc2a0c36f5939a14966705c7cec813163faeea1f0,,3,0,0xd9ea2174973f41ecd29b57cdded37cf09c9ec8fd4a010e9a206fbaf8781845b9,36764350,2025-10-13T01:14:07.000Z,3270530790000,3270530790000,3270530790000,,,,,,,,0xd9ea2174973f41ecd29b57cdded37cf09c9ec8fd4a010e9a206fbaf8781845b9,0x2cca08ae69e0c44b18a57ab2a87644234daebae4,18725252571927,SENT,N/A,NO_MATCH,true,false,false,,36764350_36764350
0x48ae95d4f0a5ca33f8efffee2432ec133523b5e15a96e0156727fae7990bd3b8,36755406,2025-10-12T20:15:59.000Z,30184,30101,Base,Ethereum,0xdeab6932fd90943770da03ceabad3ce044721302101aa8d2b6f49d44c01eca52,,0x1b98dd8875c2b56e39f0b02201cf5d235dddf1ba,,,,0x554833698ae0fb22ecc90b01222903fd62ca4b47,0x5b6735c66d97479ccd18294fc96b3084ecb2fa3f,0xc2a0c36f5939a14966705c7cec813163faeea1f0,,3,0,0x48ae95d4f0a5ca33f8efffee2432ec133523b5e15a96e0156727fae7990bd3b8,36755406,2025-10-12T20:15:59.000Z,2339535748608,2339535748608,2339535748608,,,,,,,,0x48ae95d4f0a5ca33f8efffee2432ec133523b5e15a96e0156727fae7990bd3b8,0x2cca08ae69e0c44b18a57ab2a87644234daebae4,18394297816464,SENT,N/A,NO_MATCH,true,false,false,,36755406_36755406
0x1558859fac49f373b7c32b02de7099e57228b952b45c4d3f3fd5d00bc36079d6,36755141,2025-10-12T20:07:09.000Z,30184,30101,Base,Ethereum,0x4bcc3ddd3a08f061349a3817f99db8d5f142caefa64e3194f7c743c0ebcbf853,,0x1b98dd8875c2b56e39f0b02201cf5d235dddf1ba,,,,0x554833698ae0fb22ecc90b01222903fd62ca4b47,0x5b6735c66d97479ccd18294fc96b3084ecb2fa3f,0xc2a0c36f5939a14966705c7cec813163faeea1f0,,3,0,0x1558859fac49f373b7c32b02de7099e57228b952b45c4d3f3fd5d00bc36079d6,36755141,2025-10-12T20:07:09.000Z,2371988934000,2371988934000,2371988934000,,,,,,,,0x1558859fac49f373b7c32b02de7099e57228b952b45c4d3f3fd5d00bc36079d6,0x2cca08ae69e0c44b18a57ab2a87644234daebae4,18407279046927,SENT,N/A,NO_MATCH,true,false,false,,36755141_36755141
0xe9eb75a0c76832104f6d46109dcfd5e61eefe60e960d755ff547d78fe8779fc1,36755020,2025-10-12T20:03:07.000Z,30184,30101,Base,Ethereum,0x3ce7d05f6b1b389ab7da701602931fd93fbf5f8d68927f94a321c6defb50149e,,0x1b98dd8875c2b56e39f0b02201cf5d235dddf1ba,,,,0x554833698ae0fb22ecc90b01222903fd62ca4b47,0x5b6735c66d97479ccd18294fc96b3084ecb2fa3f,0xc2a0c36f5939a14966705c7cec813163faeea1f0,,3,0,0xe9eb75a0c76832104f6d46109dcfd5e61eefe60e960d755ff547d78fe8779fc1,36755020,2025-10-12T20:03:07.000Z,2371988934000,2371988934000,2371988934000,,,,,,,,0xe9eb75a0c76832104f6d46109dcfd5e61eefe60e960d755ff547d78fe8779fc1,0x2cca08ae69e0c44b18a57ab2a87644234daebae4,18407279046927,SENT,N/A,NO_MATCH,true,false,false,,36755020_36755020
0x95a72c8bfa00457cae098c22b732f6e50fc4c648f5fbe2635b79162a6e851da3,36752567,2025-10-12T18:41:21.000Z,30184,30101,Base,Ethereum,0x164930a9115662c3310a7766e25240279fabd64d4958d55a50f8ebc3a27941c8,,0xa30e48c7826eed00223224dfde038347b983f0f1,,,,0x554833698ae0fb22ecc90b01222903fd62ca4b47,0x5b6735c66d97479ccd18294fc96b3084ecb2fa3f,0xc2a0c36f5939a14966705c7cec813163faeea1f0,,3,0,0x95a72c8bfa00457cae098c22b732f6e50fc4c648f5fbe2635b79162a6e851da3,36752567,2025-10-12T18:41:21.000Z,4732724797200,4732724797200,4732724797200,,,,,,,,0x95a72c8bfa00457cae098c22b732f6e50fc4c648f5fbe2635b79162a6e851da3,0x2cca08ae69e0c44b18a57ab2a87644234daebae4,19234756983927,SENT,N/A,NO_MATCH,true,false,false,,36752567_36752567
0xe2a7d53ba96b2ec483f4a2d551e3c78be20cee97a88066a7ae69fa0618f253d8,36737034,2025-10-12T10:03:35.000Z,30184,30101,Base,Ethereum,0x7a0d97473b573e60be194b39290008044a06d54b65a46bf641c40fe2f9fdb47e,,0x9b19bb1fbe8978d8a2454cc3b812dbf1341e03b3,,,,0x554833698ae0fb22ecc90b01222903fd62ca4b47,0x5b6735c66d97479ccd18294fc96b3084ecb2fa3f,0xc2a0c36f5939a14966705c7cec813163faeea1f0,,3,0,0xe2a7d53ba96b2ec483f4a2d551e3c78be20cee97a88066a7ae69fa0618f253d8,36737034,2025-10-12T10:03:35.000Z,3941345484000,3941345484000,3941345484000,,,,,,,,0xe2a7d53ba96b2ec483f4a2d551e3c78be20cee97a88066a7ae69fa0618f253d8,0x2cca08ae69e0c44b18a57ab2a87644234daebae4,20213940610773,SENT,N/A,NO_MATCH,true,false,false,,36737034_36737034
0x0e606fc67699e571a51ecd97bd88a095cd3c8fc148f1c9385c426f696d4d4e0f,36692438,2025-10-11T09:17:03.000Z,30184,30101,Base,Ethereum,0xafa04e776c5694b2dc0c912bb815e1f07bf0985df0ae365e9336ea53baa1fbe3,,0x04ce218ead72401702dd5f3e56cedb7d2d477777,,,,0x9e059a54699a285714207b43b055483e78faac25,0xd56e4eab23cb81f43168f9f45211eb027b9ac7cc,0x554833698ae0fb22ecc90b01222903fd62ca4b47,0xa0af56164f02bdf9d75287ee77c568889f11d5f2,0xc2a0c36f5939a14966705c7cec813163faeea1f0,2,3,0x0e606fc67699e571a51ecd97bd88a095cd3c8fc148f1c9385c426f696d4d4e0f,36692438,2025-10-11T09:17:03.000Z,127245636167865,127245636167865,130182356302521,130182356302521,130182356302521,0x691afd77199e02cec9a3c2c049af2f738e4a7af2d24baf8fc32f85dc4476438c,23553536,2025-10-11T09:17:59.000Z,OFTReceived,,,,0x0e606fc67699e571a51ecd97bd88a095cd3c8fc148f1c9385c426f696d4d4e0f,0x2cca08ae69e0c44b18a57ab2a87644234daebae4,378892726003546,DELIVERED,56,GUID,false,true,true,36692438_23553536,36692438_36692438
0x0a4e7f0fb20211bbbd6f0cc9b38696db6cc18209e0c4f96959776753010388cc,36692012,2025-10-11T09:02:51.000Z,30184,30101,Base,Ethereum,0xbc8008e9258cc54b462a2b48c330fb1d8145b44846d93d9a2348067b2755f493,,0x04ce218ead72401702dd5f3e56cedb7d2d477777,,,,0x9e059a54699a285714207b43b055483e78faac25,0xd56e4eab23cb81f43168f9f45211eb027b9ac7cc,0x554833698ae0fb22ecc90b01222903fd62ca4b47,0xa0af56164f02bdf9d75287ee77c568889f11d5f2,0xc2a0c36f5939a14966705c7cec813163faeea1f0,2,3,0x0a4e7f0fb20211bbbd6f0cc9b38696db6cc18209e0c4f96959776753010388cc,36692012,2025-10-11T09:02:51.000Z,127245636167865,127245636167865,130182356302521,130182356302521,130182356302521,0x91554006eea2bfac3768835c3d92fa14ead4eaa8b707a54b7f2b9115e0212ade,23553466,2025-10-11T09:03:59.000Z,OFTReceived,,,,0x0a4e7f0fb20211bbbd6f0cc9b38696db6cc18209e0c4f96959776753010388cc,0x2cca08ae69e0c44b18a57ab2a87644234daebae4,378892726003546,DELIVERED,68,GUID,false,true,true,36692012_23553466,36692012_36692012
0x1c4c4897245c22a3899dc61f48c3eca510dac57e523a2b4d3dc96b1f2e334d9d,36687447,2025-10-11T06:30:41.000Z,30184,30101,Base,Ethereum,0x204f258cc6dbf47324c3324e42a68ed5c61760f733fad2917fcab1750bebf200,,0x65a8f07bd9a8598e1b5b6c0a88f4779dbc077675,,,,0x9e059a54699a285714207b43b055483e78faac25,0xd56e4eab23cb81f43168f9f45211eb027b9ac7cc,0x554833698ae0fb22ecc90b01222903fd62ca4b47,0xa0af56164f02bdf9d75287ee77c568889f11d5f2,0xc2a0c36f5939a14966705c7cec813163faeea1f0,2,3,0x1c4c4897245c22a3899dc61f48c3eca510dac57e523a2b4d3dc96b1f2e334d9d,36687447,2025-10-11T06:30:41.000Z,127245636167865,127245636167865,130182356302521,130182356302521,130182356302521,0xb90ab92a66ccf2eb50e28eaa86565e0da24fe6aec8b86defc1b2dcee58b2ca52,23552713,2025-10-11T06:32:11.000Z,OFTReceived,,,,0x1c4c4897245c22a3899dc61f48c3eca510dac57e523a2b4d3dc96b1f2e334d9d,0x2cca08ae69e0c44b18a57ab2a87644234daebae4,378892726003546,DELIVERED,90,GUID,false,true,true,36687447_23552713,36687447_36687447
0x743f2a1c9d593eeb563968c6e5e27ce5e4e6791107116f59b321c45b7b3b62ca,36683647,2025-10-11T04:24:01.000Z,30184,30101,Base,Ethereum,0x68876c93f98fa69bed85599524ab61d71dcf482903c94da5e4b8997f16c82d0f,,0x1b98dd8875c2b56e39f0b02201cf5d235dddf1ba,,,,0x554833698ae0fb22ecc90b01222903fd62ca4b47,0x5b6735c66d97479ccd18294fc96b3084ecb2fa3f,0xc2a0c36f5939a14966705c7cec813163faeea1f0,,3,0,0x743f2a1c9d593eeb563968c6e5e27ce5e4e6791107116f59b321c45b7b3b62ca,36683647,2025-10-11T04:24:01.000Z,7230828780000,7230828780000,7230828780000,,,,,,,,0x743f2a1c9d593eeb563968c6e5e27ce5e4e6791107116f59b321c45b7b3b62ca,0x2cca08ae69e0c44b18a57ab2a87644234daebae4,21366078985773,SENT,N/A,NO_MATCH,true,false,false,,36683647_36683647
0xef62a4d16c878c588d89e63b9e64b056bf8ac0a48ba888526fdfb9be7337d8f8,36683461,2025-10-11T04:17:49.000Z,30184,30101,Base,Ethereum,0x5ddbd1d236f718561c91468d83e6e3a759c449e159dd31508e4565ca88beb101,,0x1b98dd8875c2b56e39f0b02201cf5d235dddf1ba,,,,0x554833698ae0fb22ecc90b01222903fd62ca4b47,0x5b6735c66d97479ccd18294fc96b3084ecb2fa3f,0xc2a0c36f5939a14966705c7cec813163faeea1f0,,3,0,0xef62a4d16c878c588d89e63b9e64b056bf8ac0a48ba888526fdfb9be7337d8f8,36683461,2025-10-11T04:17:49.000Z,10473766986000,10473766986000,10473766986000,,,,,,,,0xef62a4d16c878c588d89e63b9e64b056bf8ac0a48ba888526fdfb9be7337d8f8,0x2cca08ae69e0c44b18a57ab2a87644234daebae4,22512300064773,SENT,N/A,NO_MATCH,true,false,false,,36683461_36683461
0x615c6a8394e796bb945ad0b9e990f635891c41b8407f62f09115be4efe57ddaa,36683152,2025-10-11T04:07:31.000Z,30184,30101,Base,Ethereum,0x2724be8913420651f09b669e32222a02a3ca2518c64eaf148c229a2f2363c3f8,,0x65a8f07bd9a8598e1b5b6c0a88f4779dbc077675,,,,0x9e059a54699a285714207b43b055483e78faac25,0xd56e4eab23cb81f43168f9f45211eb027b9ac7cc,0x554833698ae0fb22ecc90b01222903fd62ca4b47,0xa0af56164f02bdf9d75287ee77c568889f11d5f2,0xc2a0c36f5939a14966705c7cec813163faeea1f0,2,3,0x615c6a8394e796bb945ad0b9e990f635891c41b8407f62f09115be4efe57ddaa,36683152,2025-10-11T04:07:31.000Z,127245636167865,127245636167865,130182356302521,130182356302521,130182356302521,0x831a973835ac7f797c41188bf67cdab8776c31a086c1ddd5a9e28cd55195c971,23552001,2025-10-11T04:08:35.000Z,OFTReceived,,,,0x615c6a8394e796bb945ad0b9e990f635891c41b8407f62f09115be4efe57ddaa,0x2cca08ae69e0c44b18a57ab2a87644234daebae4,378892726003546,DELIVERED,64,GUID,false,true,true,36683152_23552001,36683152_36683152
0xbd53ab9cacb399a7c37683715b48a986c2f67e31be18862711e6373dcc841909,36660068,2025-10-10T15:18:03.000Z,30184,30101,Base,Ethereum,0x1cf4cc97e1d359d8772250e515f41aeebbbce697860e3eb745d01f39de7fa2c1,,0x04ce218ead72401702dd5f3e56cedb7d2d477777,,,,0x9e059a54699a285714207b43b055483e78faac25,0xd56e4eab23cb81f43168f9f45211eb027b9ac7cc,0x554833698ae0fb22ecc90b01222903fd62ca4b47,0xa0af56164f02bdf9d75287ee77c568889f11d5f2,0xc2a0c36f5939a14966705c7cec813163faeea1f0,2,3,0xbd53ab9cacb399a7c37683715b48a986c2f67e31be18862711e6373dcc841909,36660068,2025-10-10T15:18:03.000Z,234970500534957,234970500534957,240393418135533,240393418135533,240393418135533,0x4e77a0ba2b72f15c1b0c0b19bcbaae7444ec4582152b51d9580540163128c50f,23548178,2025-10-10T15:19:11.000Z,OFTReceived,,,,0xbd53ab9cacb399a7c37683715b48a986c2f67e31be18862711e6373dcc841909,0x2cca08ae69e0c44b18a57ab2a87644234daebae4,605967543574382,DELIVERED,68,GUID,false,true,true,36660068_23548178,36660068_36660068
0x7628f6a54a00e132187565f64a2707e6b06cf41f4c731940db2ae689f38b7568,36658772,2025-10-10T14:34:51.000Z,30184,30101,Base,Ethereum,0x73a0b430920a7ece6c8f0a5922f838ca657053a8f32534d93c63331c66aef6b2,,0x04ce218ead72401702dd5f3e56cedb7d2d477777,,,,0x9e059a54699a285714207b43b055483e78faac25,0xd56e4eab23cb81f43168f9f45211eb027b9ac7cc,0x554833698ae0fb22ecc90b01222903fd62ca4b47,0xa0af56164f02bdf9d75287ee77c568889f11d5f2,0xc2a0c36f5939a14966705c7cec813163faeea1f0,2,3,0x7628f6a54a00e132187565f64a2707e6b06cf41f4c731940db2ae689f38b7568,36658772,2025-10-10T14:34:51.000Z,53996256843832,53996256843832,55242444135160,55242444135160,55242444135160,0x851a442e28ef672f25401bba82ad73dfb670a4196e69e048dd7618d58a4cd432,23547965,2025-10-10T14:35:59.000Z,OFTReceived,,,,0x7628f6a54a00e132187565f64a2707e6b06cf41f4c731940db2ae689f38b7568,0x2cca08ae69e0c44b18a57ab2a87644234daebae4,200973872516942,DELIVERED,68,GUID,false,true,true,36658772_23547965,36658772_36658772
0x2efa4d2f314b68a6e7097de6a075726c36a79b3f8c5fefd3b7618cd0fce8d748,36654560,2025-10-10T12:14:27.000Z,30184,30101,Base,Ethereum,0x34c73c3c287fe7c5861468ee6741f06735c47735d2844c64d639c75f98a7f4f8,,0x04ce218ead72401702dd5f3e56cedb7d2d477777,,,,0x9e059a54699a285714207b43b055483e78faac25,0xd56e4eab23cb81f43168f9f45211eb027b9ac7cc,0x554833698ae0fb22ecc90b01222903fd62ca4b47,0xa0af56164f02bdf9d75287ee77c568889f11d5f2,0xc2a0c36f5939a14966705c7cec813163faeea1f0,2,3,0x2efa4d2f314b68a6e7097de6a075726c36a79b3f8c5fefd3b7618cd0fce8d748,36654560,2025-10-10T12:14:27.000Z,14246119596282,14246119596282,14574907816602,14574907816602,14574907816602,0x796a9c7ac43d4b6fb890c394df7fb709fa97a1f96b01866882619904d4898691,23547269,2025-10-10T12:15:35.000Z,OFTReceived,,,,0x2efa4d2f314b68a6e7097de6a075726c36a79b3f8c5fefd3b7618cd0fce8d748,0x2cca08ae69e0c44b18a57ab2a87644234daebae4,112018926881702,DELIVERED,68,GUID,false,true,true,36654560_23547269,36654560_36654560
0x6412a2ddd778431bf95e0d95021d4eb013c89cb47af0c40abc04cc3fea842314,36653154,2025-10-10T11:27:35.000Z,30184,30101,Base,Ethereum,0xf353ace68c05ac49b64d693d135c25b675419fdf569163a00e53102981afbc99,,0x8d655b1af80200a6b81e11482fdea66328b16e05,,,,0x9e059a54699a285714207b43b055483e78faac25,0xd56e4eab23cb81f43168f9f45211eb027b9ac7cc,0x554833698ae0fb22ecc90b01222903fd62ca4b47,0xa0af56164f02bdf9d75287ee77c568889f11d5f2,0xc2a0c36f5939a14966705c7cec813163faeea1f0,2,3,0x6412a2ddd778431bf95e0d95021d4eb013c89cb47af0c40abc04cc3fea842314,36653154,2025-10-10T11:27:35.000Z,14246119596282,14246119596282,14574907816602,14574907816602,14574907816602,0x7267388e960ad5701b7dfb20c2ff9de5a141074cbfc5f48cc4100e1e73b5647b,23547035,2025-10-10T11:28:35.000Z,OFTReceived,,,,0x6412a2ddd778431bf95e0d95021d4eb013c89cb47af0c40abc04cc3fea842314,0x2cca08ae69e0c44b18a57ab2a87644234daebae4,112018926881702,DELIVERED,60,GUID,false,true,true,36653154_23547035,36653154_36653154
0x6658de9fd5c59007bf3030b5f31ffa51641f162c3f262b3a607d36a84da4f589,36652928,2025-10-10T11:20:03.000Z,30184,30101,Base,Ethereum,0xf5db336a557a7464918d92ea049b910adba831d43a868f0c7d5f0038a941d202,,0xdb3812cd8d20f27888677ddc97df1241850f8c48,,,,0x9e059a54699a285714207b43b055483e78faac25,0xd56e4eab23cb81f43168f9f45211eb027b9ac7cc,0x554833698ae0fb22ecc90b01222903fd62ca4b47,0xa0af56164f02bdf9d75287ee77c568889f11d5f2,0xc2a0c36f5939a14966705c7cec813163faeea1f0,2,3,0x6658de9fd5c59007bf3030b5f31ffa51641f162c3f262b3a607d36a84da4f589,36652928,2025-10-10T11:20:03.000Z,14246119596282,14246119596282,14574907816602,14574907816602,14574907816602,0x9cb89c244ae89293fc71794234de7c4a0129e5977eed3adb978b8cacade5b5b3,23546998,2025-10-10T11:21:11.000Z,OFTReceived,,,,0x6658de9fd5c59007bf3030b5f31ffa51641f162c3f262b3a607d36a84da4f589,0x2cca08ae69e0c44b18a57ab2a87644234daebae4,275108321881702,DELIVERED,68,GUID,false,true,true,36652928_23546998,36652928_36652928
0x4ecd9c70973345f00e24c82c331b443617df1bc6a3b77d655c9879f17b60a26b,36625444,2025-10-09T20:03:55.000Z,30184,30101,Base,Ethereum,0x63dde1c567c02df6ece26326e32c51fde160f11ef9d0ed8663764cad344404e2,,0x65a8f07bd9a8598e1b5b6c0a88f4779dbc077675,,,,0x9e059a54699a285714207b43b055483e78faac25,0xd56e4eab23cb81f43168f9f45211eb027b9ac7cc,0x554833698ae0fb22ecc90b01222903fd62ca4b47,0xa0af56164f02bdf9d75287ee77c568889f11d5f2,0xc2a0c36f5939a14966705c7cec813163faeea1f0,2,3,0x4ecd9c70973345f00e24c82c331b443617df1bc6a3b77d655c9879f17b60a26b,36625444,2025-10-09T20:03:55.000Z,43458117192252,43458117192252,44461093259772,44461093259772,44461093259772,0x3a6643d9a9c121bc7ee6d9814c21734bf4a1d0dd1836834e67aa39ac02d5ef5e,23542450,2025-10-09T20:04:59.000Z,OFTReceived,,,,0x4ecd9c70973345f00e24c82c331b443617df1bc6a3b77d655c9879f17b60a26b,0x2cca08ae69e0c44b18a57ab2a87644234daebae4,177391069922702,DELIVERED,64,GUID,false,true,true,36625444_23542450,36625444_36625444
0x4860d0a2a71b908d83e8831c2beb056fd589ba3497ef8995dfc70d0861ad699b,36622325,2025-10-09T18:19:57.000Z,30184,30101,Base,Ethereum,0x66984f49343b361c759fba0dd3232b61300dfe65b0257c467a0525debca91d3f,,0xeae5be3835191ebd198af53aa6541cc7de87d6e4,,,,0x554833698ae0fb22ecc90b01222903fd62ca4b47,0x5b6735c66d97479ccd18294fc96b3084ecb2fa3f,0xc2a0c36f5939a14966705c7cec813163faeea1f0,,3,0,0x4860d0a2a71b908d83e8831c2beb056fd589ba3497ef8995dfc70d0861ad699b,36622325,2025-10-09T18:19:57.000Z,111415229455,111415229455,111415229455,,,,,,,,0x4860d0a2a71b908d83e8831c2beb056fd589ba3497ef8995dfc70d0861ad699b,0x2cca08ae69e0c44b18a57ab2a87644234daebae4,4754454112950,SENT,N/A,NO_MATCH,true,false,false,,36622325_36622325
0x18e799ad91e065916dc3bdc2e118fd5a17619f021b7a2c7014a9bba43cd68e1b,36614530,2025-10-09T14:00:07.000Z,30184,30101,Base,Ethereum,0x562700e77b08eb4288dd2ec733dbd970d298dfc6d143b13c525ea6251e406190,,0x1b98dd8875c2b56e39f0b02201cf5d235dddf1ba,,,,0x554833698ae0fb22ecc90b01222903fd62ca4b47,0x5b6735c66d97479ccd18294fc96b3084ecb2fa3f,0xc2a0c36f5939a14966705c7cec813163faeea1f0,,3,0,0x18e799ad91e065916dc3bdc2e118fd5a17619f021b7a2c7014a9bba43cd68e1b,36614530,2025-10-09T14:00:07.000Z,17551362268800,17551362268800,17551362268800,,,,,,,,0x18e799ad91e065916dc3bdc2e118fd5a17619f021b7a2c7014a9bba43cd68e1b,0x2cca08ae69e0c44b18a57ab2a87644234daebae4,22204308429420,SENT,N/A,NO_MATCH,true,false,false,,36614530_36614530
0x270b87e4d62ef1a37c7cb651420f238a30bbf0779d2c2a095c9da62da75f1156,36601234,2025-10-09T06:36:55.000Z,30184,30101,Base,Ethereum,0x19d453f2e2e712be4e1bd050d44f1c13faf4ecfd98dc40a936f0fc1261fa7015,,0x3e0954d9b32f823aff2f66173ffed5f453dedd93,,,,0x9e059a54699a285714207b43b055483e78faac25,0xd56e4eab23cb81f43168f9f45211eb027b9ac7cc,0x554833698ae0fb22ecc90b01222903fd62ca4b47,0xa0af56164f02bdf9d75287ee77c568889f11d5f2,0xc2a0c36f5939a14966705c7cec813163faeea1f0,2,3,0x270b87e4d62ef1a37c7cb651420f238a30bbf0779d2c2a095c9da62da75f1156,36601234,2025-10-09T06:36:55.000Z,9619345037072,9619345037072,9841351269296,9841351269296,9841351269296,0x242a8649603c003bc8fc83b1503b4179b9beaa452421f04a11afa9d37571d239,23538438,2025-10-09T06:37:59.000Z,OFTReceived,,,,0x270b87e4d62ef1a37c7cb651420f238a30bbf0779d2c2a095c9da62da75f1156,0x2cca08ae69e0c44b18a57ab2a87644234daebae4,151436887640613,DELIVERED,64,GUID,false,true,true,36601234_23538438,36601234_36601234
0xdfebb986073eba5d7f15686ff2ab1def19dade7e896aed7a1aedec7e4e538211,36601162,2025-10-09T06:34:31.000Z,30184,30101,Base,Ethereum,0x92f7d54be016f85efccdcfffa225d4b5a939ad820351eb4a98f9ebf2ff396b3c,,0xaff53fb46d0b10c90b3ef5c29df101c661e05620,,,,0x9e059a54699a285714207b43b055483e78faac25,0xd56e4eab23cb81f43168f9f45211eb027b9ac7cc,0x554833698ae0fb22ecc90b01222903fd62ca4b47,0xa0af56164f02bdf9d75287ee77c568889f11d5f2,0xc2a0c36f5939a14966705c7cec813163faeea1f0,2,3,0xdfebb986073eba5d7f15686ff2ab1def19dade7e896aed7a1aedec7e4e538211,36601162,2025-10-09T06:34:31.000Z,9619345037072,9619345037072,9841351269296,9841351269296,9841351269296,0x5bc383db6d0ead3b552f2515cb6bef0bca6ea938112218229d8e3d34ad136f7c,23538426,2025-10-09T06:35:35.000Z,OFTReceived,,,,0xdfebb986073eba5d7f15686ff2ab1def19dade7e896aed7a1aedec7e4e538211,0x2cca08ae69e0c44b18a57ab2a87644234daebae4,96375818140613,DELIVERED,64,GUID,false,true,true,36601162_23538426,36601162_36601162
0x9d14bbb903410c918d9321c5aa6a9d9606412f8d405c85e28401729755c7f320,36595101,2025-10-09T03:12:29.000Z,30184,30101,Base,Ethereum,0xd67572e719177bdd5e9c9873d15f48e29da832f773478001031ab6a6806aa66e,,0x04ce218ead72401702dd5f3e56cedb7d2d477777,,,,0x9e059a54699a285714207b43b055483e78faac25,0xd56e4eab23cb81f43168f9f45211eb027b9ac7cc,0x554833698ae0fb22ecc90b01222903fd62ca4b47,0xa0af56164f02bdf9d75287ee77c568889f11d5f2,0xc2a0c36f5939a14966705c7cec813163faeea1f0,2,3,0x9d14bbb903410c918d9321c5aa6a9d9606412f8d405c85e28401729755c7f320,36595101,2025-10-09T03:12:29.000Z,9619345037072,9619345037072,9841351269296,9841351269296,9841351269296,0x125327b5f4944f01f120e9393ccca697a1a0e2cbf8e8de361dba4801e74ee930,23537426,2025-10-09T03:13:35.000Z,OFTReceived,,,,0x9d14bbb903410c918d9321c5aa6a9d9606412f8d405c85e28401729755c7f320,0x2cca08ae69e0c44b18a57ab2a87644234daebae4,96375818140613,DELIVERED,66,GUID,false,true,true,36595101_23537426,36595101_36595101
0xd84a003981ed9124503e64d4ec6c3db5a32ab7efbeacfc7b55ac634da723babf,36595092,2025-10-09T03:12:11.000Z,30184,30101,Base,Ethereum,0x517ebfd56b1d516aa784db3f12322fb1f71e68579abed54377272ac8a11cf986,,0x3488d35b470735a3a90e1c13cea5d1041c89c23f,,,,0x9e059a54699a285714207b43b055483e78faac25,0xd56e4eab23cb81f43168f9f45211eb027b9ac7cc,0x554833698ae0fb22ecc90b01222903fd62ca4b47,0xa0af56164f02bdf9d75287ee77c568889f11d5f2,0xc2a0c36f5939a14966705c7cec813163faeea1f0,2,3,0xd84a003981ed9124503e64d4ec6c3db5a32ab7efbeacfc7b55ac634da723babf,36595092,2025-10-09T03:12:11.000Z,9619345037072,9619345037072,9841351269296,9841351269296,9841351269296,0x712494e2bbc5be495fc7cc6f1389d911da13568811437cd6e3b144226eb6d019,23537424,2025-10-09T03:13:11.000Z,OFTReceived,,,,0xd84a003981ed9124503e64d4ec6c3db5a32ab7efbeacfc7b55ac634da723babf,0x2cca08ae69e0c44b18a57ab2a87644234daebae4,107388032040613,DELIVERED,60,GUID,false,true,true,36595092_23537424,36595092_36595092
0x8273b0126fde29d68f2465c5fec1f0fbe1c0f95c25c38ade138da20a473910d5,36589828,2025-10-09T00:16:43.000Z,30184,30101,Base,Ethereum,0x534c3712afbc5140b3b569fb3c34ca476678cbad5d9cf0468e44a0ac3a8bdc7f,,0x8357c4ea5f58b349a8f980caab4bb3ff3797734b,,,,0x9e059a54699a285714207b43b055483e78faac25,0xcd37ca043f8479064e10635020c65ffc005d36f6,0xd56e4eab23cb81f43168f9f45211eb027b9ac7cc,0x133e9fb2d339d8428476a714b1113b024343811e,0x554833698ae0fb22ecc90b01222903fd62ca4b47,0x5b6735c66d97479ccd18294fc96b3084ecb2fa3f,0xa7b5189bca84cd304d8553977c7c614329750d99,0xb3ce0a5d132cd9bf965aba435e650c55edce0062,0xc2a0c36f5939a14966705c7cec813163faeea1f0,0xcdf31d62140204c08853b547e64707110fbc6680,0xdd7b5e1db4aafd5c8ec3b764efb8ed265aa5445b,0xeede111103535e473451311e26c3e6660b0f77e1,3,9,0x8273b0126fde29d68f2465c5fec1f0fbe1c0f95c25c38ade138da20a473910d5,36589828,2025-10-09T00:16:43.000Z,9619345037072,9530542544182,9619345037072,10018956255075,9841351269296,9841351269296,9619345037072,9530542544182,9841351269296,9530542544182,9530542544182,9530542544182,,,,,,,,0x8273b0126fde29d68f2465c5fec1f0fbe1c0f95c25c38ade138da20a473910d5,0x2cca08ae69e0c44b18a57ab2a87644234daebae4,94173375360613,SENT,N/A,NO_MATCH,false,true,false,,36589828_36589828
0x1bab12c1b8c4a2c4fa01f1d8e02bb2a5c491c7cd1ce804a683d5ec307f362e03,36577520,2025-10-08T17:26:27.000Z,30184,30101,Base,Ethereum,0x03f9079064b73cfd1796108199ff36ef520451e479fd1b81312e7490dbea7d24,,0x04ce218ead72401702dd5f3e56cedb7d2d477777,,,,0x9e059a54699a285714207b43b055483e78faac25,0xd56e4eab23cb81f43168f9f45211eb027b9ac7cc,0x554833698ae0fb22ecc90b01222903fd62ca4b47,0xa0af56164f02bdf9d75287ee77c568889f11d5f2,0xc2a0c36f5939a14966705c7cec813163faeea1f0,2,3,0x1bab12c1b8c4a2c4fa01f1d8e02bb2a5c491c7cd1ce804a683d5ec307f362e03,36577520,2025-10-08T17:26:27.000Z,92175830055758,92175830055758,94303169147342,94303169147342,94303169147342,0x87069481622da9fbc3f2329ef34cda06a52234eda5182ae3d0d309bf132212ad,23534512,2025-10-08T17:27:35.000Z,OFTReceived,,,,0x1bab12c1b8c4a2c4fa01f1d8e02bb2a5c491c7cd1ce804a683d5ec307f362e03,0x2cca08ae69e0c44b18a57ab2a87644234daebae4,281125057896413,DELIVERED,68,GUID,false,true,true,36577520_23534512,36577520_36577520
0xa39b6863488eb095981df46c3fee3dedabd24ff848a7b65f6c0d72c9f1eae081,36568896,2025-10-08T12:38:59.000Z,30184,30101,Base,Ethereum,0x35e5981600e9a05572a091b9d5df2d52f464d1c588ba384705082153c65601ba,,0x3488d35b470735a3a90e1c13cea5d1041c89c23f,,,,0x9e059a54699a285714207b43b055483e78faac25,0xd56e4eab23cb81f43168f9f45211eb027b9ac7cc,0x554833698ae0fb22ecc90b01222903fd62ca4b47,0xa0af56164f02bdf9d75287ee77c568889f11d5f2,0xc2a0c36f5939a14966705c7cec813163faeea1f0,2,3,0xa39b6863488eb095981df46c3fee3dedabd24ff848a7b65f6c0d72c9f1eae081,36568896,2025-10-08T12:38:59.000Z,17378582039406,17378582039406,17779664805966,17779664805966,17779664805966,0xbdc73b88d89cf98eb2ab5ee091498e9ebbaa5b2b32e0a4f33c82acaca6fe85b1,23533088,2025-10-08T12:39:59.000Z,OFTReceived,,,,0xa39b6863488eb095981df46c3fee3dedabd24ff848a7b65f6c0d72c9f1eae081,0x2cca08ae69e0c44b18a57ab2a87644234daebae4,133634824880693,DELIVERED,60,GUID,false,true,true,36568896_23533088,36568896_36568896
0x9c0b61f9834def302d98111c4f031047bef9ec906d2791a5b69724988f3f83f9,36562066,2025-10-08T08:51:19.000Z,30184,30101,Base,Ethereum,0x34f2d21c61557b177076ff2551abce3a99f6fd26f5aab81b6f1e6a40f7f2f6c4,,0xf36eb9091898702598a8dffc7f3fe1cd46bebf93,,,,0x554833698ae0fb22ecc90b01222903fd62ca4b47,0x5b6735c66d97479ccd18294fc96b3084ecb2fa3f,0xc2a0c36f5939a14966705c7cec813163faeea1f0,,3,0,0x9c0b61f9834def302d98111c4f031047bef9ec906d2791a5b69724988f3f83f9,36562066,2025-10-08T08:51:19.000Z,109217768263,109217768263,109217768263,,,,,,,,0x9c0b61f9834def302d98111c4f031047bef9ec906d2791a5b69724988f3f83f9,0x2cca08ae69e0c44b18a57ab2a87644234daebae4,4448767494697,SENT,N/A,NO_MATCH,true,false,false,,36562066_36562066
0x842b7ec38e764374b7165fef0fda26340afc2eb503b46738556958ca1f8b9bce,36530240,2025-10-07T15:10:27.000Z,30184,30101,Base,Ethereum,0x33e52c70afe9f79bd38543ed060717461ceaba574ea6ef595597ee9c868d4d8d,,0xb9914547cf66e9607cc7607e10ed38c20e95270e,,,,0x554833698ae0fb22ecc90b01222903fd62ca4b47,0x5b6735c66d97479ccd18294fc96b3084ecb2fa3f,0xc2a0c36f5939a14966705c7cec813163faeea1f0,,3,0,0x842b7ec38e764374b7165fef0fda26340afc2eb503b46738556958ca1f8b9bce,36530240,2025-10-07T15:10:27.000Z,11842624836000,11842624836000,11842624836000,,,,,,,,0x842b7ec38e764374b7165fef0fda26340afc2eb503b46738556958ca1f8b9bce,0x2cca08ae69e0c44b18a57ab2a87644234daebae4,19095850143778,SENT,N/A,NO_MATCH,true,false,false,,36530240_36530240
0x861b419cf20d4935f46e183fb35678d2ff3a4a4a7f80964cfa8f4e2055b78d6c,36525445,2025-10-07T12:30:37.000Z,30184,30101,Base,Ethereum,0xcc36ebec076b34c1bc74aa11c35534d97accbce6947b8e3c67d23cc30df1bc8f,,0x7c360c43ad0ce1d4d5f9cb1079c641930aebf6a4,,,,0x554833698ae0fb22ecc90b01222903fd62ca4b47,0x5b6735c66d97479ccd18294fc96b3084ecb2fa3f,0xc2a0c36f5939a14966705c7cec813163faeea1f0,,3,0,0x861b419cf20d4935f46e183fb35678d2ff3a4a4a7f80964cfa8f4e2055b78d6c,36525445,2025-10-07T12:30:37.000Z,2412108000000,2412108000000,2412108000000,,,,,,,,0x861b419cf20d4935f46e183fb35678d2ff3a4a4a7f80964cfa8f4e2055b78d6c,0x2cca08ae69e0c44b18a57ab2a87644234daebae4,15812388481778,SENT,N/A,NO_MATCH,true,false,false,,36525445_36525445
0x372b2650d54512dd657a67caa65be71a2aab8188e9fedbb2523608a42c71bf30,36520706,2025-10-07T09:52:39.000Z,30184,30101,Base,Ethereum,0x255feb4116a179c3ce704d3d820cbcfec2422542e2631748186ac82fd1f00d07,,0xd4a2aee94345bfa6aa1bdd3b95e8dc9d14b2ea19,,,,0x9e059a54699a285714207b43b055483e78faac25,0xd56e4eab23cb81f43168f9f45211eb027b9ac7cc,0x554833698ae0fb22ecc90b01222903fd62ca4b47,0xa0af56164f02bdf9d75287ee77c568889f11d5f2,0xc2a0c36f5939a14966705c7cec813163faeea1f0,2,3,0x372b2650d54512dd657a67caa65be71a2aab8188e9fedbb2523608a42c71bf30,36520706,2025-10-07T09:52:39.000Z,11292136737529,11292136737529,11552749567321,11552749567321,11552749567321,0x049199ca3bce3170cf610feb4b1dfeb3803945cffda62ffeffc3705814a1ffad,23525110,2025-10-07T09:53:47.000Z,OFTReceived,,,,0x372b2650d54512dd657a67caa65be71a2aab8188e9fedbb2523608a42c71bf30,0x2cca08ae69e0c44b18a57ab2a87644234daebae4,164755397797653,DELIVERED,68,GUID,false,true,true,36520706_23525110,36520706_36520706
0xb9c06b1f1cca7983d161592bdaef8029a513b9cb2b374eab82445449bc2dfdca,36520705,2025-10-07T09:52:37.000Z,30184,30101,Base,Ethereum,0x19871c50101708c1045a55d597cabc5bc75cb2495f53898983d12d431739e674,,0xe83f75907fb4c575414fa6f5cfe8cef24dc5870c,,,,0x9e059a54699a285714207b43b055483e78faac25,0xd56e4eab23cb81f43168f9f45211eb027b9ac7cc,0x554833698ae0fb22ecc90b01222903fd62ca4b47,0xa0af56164f02bdf9d75287ee77c568889f11d5f2,0xc2a0c36f5939a14966705c7cec813163faeea1f0,2,3,0xb9c06b1f1cca7983d161592bdaef8029a513b9cb2b374eab82445449bc2dfdca,36520705,2025-10-07T09:52:37.000Z,11292136737529,11292136737529,11552749567321,11552749567321,11552749567321,0x013b9c93e5752fe8dc4e4e22e840f83216ee896b8ea82ec1801b50ae2f608a0b,23525110,2025-10-07T09:53:47.000Z,OFTReceived,,,,0xb9c06b1f1cca7983d161592bdaef8029a513b9cb2b374eab82445449bc2dfdca,0x2cca08ae69e0c44b18a57ab2a87644234daebae4,125973726697653,DELIVERED,70,GUID,false,true,true,36520705_23525110,36520705_36520705
0x99bf48b3806eeba1988499a51fab8684640c1d8399a922719bd092341180d23e,36504520,2025-10-07T00:53:07.000Z,30184,30101,Base,Ethereum,0x8d711e53eac46b64aeb76968b690963223377cb453f993f587fc64b4dfd197e9,,0x1aafacc008099845d6c35df8c5925c8e659c4400,,,,0x9e059a54699a285714207b43b055483e78faac25,0xd56e4eab23cb81f43168f9f45211eb027b9ac7cc,0x554833698ae0fb22ecc90b01222903fd62ca4b47,0xa0af56164f02bdf9d75287ee77c568889f11d5f2,0xc2a0c36f5939a14966705c7cec813163faeea1f0,2,3,0x99bf48b3806eeba1988499a51fab8684640c1d8399a922719bd092341180d23e,36504520,2025-10-07T00:53:07.000Z,35643997529044,35643997529044,36466630417492,36466630417492,36466630417492,0x3b8da56c594ffa796878dc0456b356299728e5f03d7aaf4e23a42dbdfdf89132,23522432,2025-10-07T00:54:11.000Z,OFTReceived,,,,0x99bf48b3806eeba1988499a51fab8684640c1d8399a922719bd092341180d23e,0x2cca08ae69e0c44b18a57ab2a87644234daebae4,154615152842333,DELIVERED,64,GUID,false,true,true,36504520_23522432,36504520_36504520
0xd814c8f6663705b230e0663a66e767b4d859a6f89fe09bebba4c4925190d822a,36503432,2025-10-07T00:16:51.000Z,30184,30101,Base,Ethereum,0xea3964c7bcbf387aec32d83ab3cfa958f2e6c85479c5e5fb8fb7dc40560ef4ab,,0x3e0954d9b32f823aff2f66173ffed5f453dedd93,,,,0x9e059a54699a285714207b43b055483e78faac25,0xd56e4eab23cb81f43168f9f45211eb027b9ac7cc,0x554833698ae0fb22ecc90b01222903fd62ca4b47,0xa0af56164f02bdf9d75287ee77c568889f11d5f2,0xc2a0c36f5939a14966705c7cec813163faeea1f0,2,3,0xd814c8f6663705b230e0663a66e767b4d859a6f89fe09bebba4c4925190d822a,36503432,2025-10-07T00:16:51.000Z,35643997529044,35643997529044,36466630417492,36466630417492,36466630417492,0x044f04b87f0e1471ef79bf4a51ad65066b74d9d34bdf08d3a0732dc63bc31f21,23522252,2025-10-07T00:17:59.000Z,OFTReceived,,,,0xd814c8f6663705b230e0663a66e767b4d859a6f89fe09bebba4c4925190d822a,0x2cca08ae69e0c44b18a57ab2a87644234daebae4,358641166842333,DELIVERED,68,GUID,false,true,true,36503432_23522252,36503432_36503432
0x9698f6102daad32bbc8fe4e4e0b5a2f6949cb6dfec9241dd7898c79b65781782,36503432,2025-10-07T00:16:51.000Z,30184,30101,Base,Ethereum,0x4e4662cc4821fcb084ca5a97fe2c20446b7c7406a83f4861eea59c840a75c9f4,,0xdb3812cd8d20f27888677ddc97df1241850f8c48,,,,0x9e059a54699a285714207b43b055483e78faac25,0xd56e4eab23cb81f43168f9f45211eb027b9ac7cc,0x554833698ae0fb22ecc90b01222903fd62ca4b47,0xa0af56164f02bdf9d75287ee77c568889f11d5f2,0xc2a0c36f5939a14966705c7cec813163faeea1f0,2,3,0x9698f6102daad32bbc8fe4e4e0b5a2f6949cb6dfec9241dd7898c79b65781782,36503432,2025-10-07T00:16:51.000Z,35643997529044,35643997529044,36466630417492,36466630417492,36466630417492,0xe86eb4722d135703d6c07f23a130aa0574f5308146b0a343e135e64f273f3e1b,23522252,2025-10-07T00:17:59.000Z,OFTReceived,,,,0x9698f6102daad32bbc8fe4e4e0b5a2f6949cb6dfec9241dd7898c79b65781782,0x2cca08ae69e0c44b18a57ab2a87644234daebae4,562667180842333,DELIVERED,68,GUID,false,true,true,36503432_23522252,36503432_36503432
0xe35f5132fa8a058539f25d89df66fae55dac4e59a60912e7796ebb6282e32c67,36503426,2025-10-07T00:16:39.000Z,30184,30101,Base,Ethereum,0xf424964c66dadf5bb1af077039982f2832c8b904ccbc13912998832a3b3719b5,,0x3488d35b470735a3a90e1c13cea5d1041c89c23f,,,,0x9e059a54699a285714207b43b055483e78faac25,0xd56e4eab23cb81f43168f9f45211eb027b9ac7cc,0x554833698ae0fb22ecc90b01222903fd62ca4b47,0xa0af56164f02bdf9d75287ee77c568889f11d5f2,0xc2a0c36f5939a14966705c7cec813163faeea1f0,2,3,0xe35f5132fa8a058539f25d89df66fae55dac4e59a60912e7796ebb6282e32c67,36503426,2025-10-07T00:16:39.000Z,35643997529044,35643997529044,36466630417492,36466630417492,36466630417492,0xac846e04613f3333c845f300e26ef3f0a61ea4d7fc3efdacec7c77b6e9b7e8e0,23522251,2025-10-07T00:17:47.000Z,OFTReceived,,,,0xe35f5132fa8a058539f25d89df66fae55dac4e59a60912e7796ebb6282e32c67,0x2cca08ae69e0c44b18a57ab2a87644234daebae4,195420355642333,DELIVERED,68,GUID,false,true,true,36503426_23522251,36503426_36503426
0x0ed88d2118651d6b657330bc179427f483f76d0c9eff520b3029c1d63d26c16c,36486134,2025-10-06T14:40:15.000Z,30184,30101,Base,Ethereum,0xa7c9eb9bb1defc13a4120330624a9f96e3a25ab524e87ffb366245a8c18ecd15,,0xcd9869d32d6c405a704fb0e9714c239f8f80c0c6,,,,0x554833698ae0fb22ecc90b01222903fd62ca4b47,0x5b6735c66d97479ccd18294fc96b3084ecb2fa3f,0xc2a0c36f5939a14966705c7cec813163faeea1f0,,3,0,0x0ed88d2118651d6b657330bc179427f483f76d0c9eff520b3029c1d63d26c16c,36486134,2025-10-06T14:40:15.000Z,15971080377600,15971080377600,15971080377600,,,,,,,,0x0ed88d2118651d6b657330bc179427f483f76d0c9eff520b3029c1d63d26c16c,0x2cca08ae69e0c44b18a57ab2a87644234daebae4,21524857763858,SENT,N/A,NO_MATCH,true,false,false,,36486134_36486134
0x3a32eff6ab81833570dcb44ccf31f182aaeab886702659bf2235b3229e049736,36472897,2025-10-06T07:19:01.000Z,30184,30101,Base,Ethereum,0xa2f492c15bda79b0ab86facbaac6519d9b472e88e84e4d2e15e21a602224aac3,,0x897aaa30749e03fbf659872a01dd867cc4d401a4,,,,0x9e059a54699a285714207b43b055483e78faac25,0xcd37ca043f8479064e10635020c65ffc005d36f6,0xd56e4eab23cb81f43168f9f45211eb027b9ac7cc,0x133e9fb2d339d8428476a714b1113b024343811e,0x554833698ae0fb22ecc90b01222903fd62ca4b47,0x5b6735c66d97479ccd18294fc96b3084ecb2fa3f,0xa7b5189bca84cd304d8553977c7c614329750d99,0xb3ce0a5d132cd9bf965aba435e650c55edce0062,0xc2a0c36f5939a14966705c7cec813163faeea1f0,0xcdf31d62140204c08853b547e64707110fbc6680,0xdd7b5e1db4aafd5c8ec3b764efb8ed265aa5445b,0xeede111103535e473451311e26c3e6660b0f77e1,3,9,0x3a32eff6ab81833570dcb44ccf31f182aaeab886702659bf2235b3229e049736,36472897,2025-10-06T07:19:01.000Z,11031551540847,10929712042057,11031551540847,11489829285404,11286150287823,11286150287823,11031551540847,10929712042057,11286150287823,10929712042057,10929712042057,10929712042057,,,,,,,,0x3a32eff6ab81833570dcb44ccf31f182aaeab886702659bf2235b3229e049736,0x2cca08ae69e0c44b18a57ab2a87644234daebae4,101810530923570,SENT,N/A,NO_MATCH,false,true,false,,36472897_36472897
0x83668b1437454f147f19ff5f6a63201bf3bf9922e8bdb6aca8f256941adba2f1,36463323,2025-10-06T01:59:53.000Z,30184,30101,Base,Ethereum,0x612d4cdf3e3aa9e6b81e603299623a1bc924ac992856d40f0b45c69cd2fd9d62,,0x3488d35b470735a3a90e1c13cea5d1041c89c23f,,,,0x9e059a54699a285714207b43b055483e78faac25,0xd56e4eab23cb81f43168f9f45211eb027b9ac7cc,0x554833698ae0fb22ecc90b01222903fd62ca4b47,0xa0af56164f02bdf9d75287ee77c568889f11d5f2,0xc2a0c36f5939a14966705c7cec813163faeea1f0,2,3,0x83668b1437454f147f19ff5f6a63201bf3bf9922e8bdb6aca8f256941adba2f1,36463323,2025-10-06T01:59:53.000Z,11031551540847,11031551540847,11286150287823,11286150287823,11286150287823,0xabd5d54bc9fcbc07a383458f658a581b9709d0f68be30c0bc41ffddf9569e8af,23515613,2025-10-06T02:00:59.000Z,OFTReceived,,,,0x83668b1437454f147f19ff5f6a63201bf3bf9922e8bdb6aca8f256941adba2f1,0x2cca08ae69e0c44b18a57ab2a87644234daebae4,116965218243570,DELIVERED,66,GUID,false,true,true,36463323_23515613,36463323_36463323
0xb5a7dd331b5503ac09b7f01a0e75ec7b8966fc594f757ecdf8f04e910f45dad1,36461133,2025-10-06T00:46:53.000Z,30184,30101,Base,Ethereum,0x94bc28127047662b7df08d68f031b78e34a270475609623c1bcedcc6b0580fa4,,0x1b98dd8875c2b56e39f0b02201cf5d235dddf1ba,,,,0x554833698ae0fb22ecc90b01222903fd62ca4b47,0x5b6735c66d97479ccd18294fc96b3084ecb2fa3f,0xc2a0c36f5939a14966705c7cec813163faeea1f0,,3,0,0xb5a7dd331b5503ac09b7f01a0e75ec7b8966fc594f757ecdf8f04e910f45dad1,36461133,2025-10-06T00:46:53.000Z,2313084000000,2313084000000,2313084000000,,,,,,,,0xb5a7dd331b5503ac09b7f01a0e75ec7b8966fc594f757ecdf8f04e910f45dad1,0x2cca08ae69e0c44b18a57ab2a87644234daebae4,16743725299858,SENT,N/A,NO_MATCH,true,false,false,,36461133_36461133
0xf59200304ad06d0a00d434e91e1647f268ce8dc3496b1610d39c2f0334bbecc6,36453003,2025-10-05T20:15:53.000Z,30184,30101,Base,Ethereum,0xdab7a8bc0b9438918434ab18f972b0d150ecafad75df3c2606307972ace42377,,0x04ce218ead72401702dd5f3e56cedb7d2d477777,,,,0x9e059a54699a285714207b43b055483e78faac25,0xd56e4eab23cb81f43168f9f45211eb027b9ac7cc,0x554833698ae0fb22ecc90b01222903fd62ca4b47,0xa0af56164f02bdf9d75287ee77c568889f11d5f2,0xc2a0c36f5939a14966705c7cec813163faeea1f0,2,3,0xf59200304ad06d0a00d434e91e1647f268ce8dc3496b1610d39c2f0334bbecc6,36453003,2025-10-05T20:15:53.000Z,11031551540847,11031551540847,11286150287823,11286150287823,11286150287823,0xadc319ffe86267bf56f72d58527e39c7e8123003acb23e2f024d2d4eafe3ec7d,23513901,2025-10-05T20:16:59.000Z,OFTReceived,,,,0xf59200304ad06d0a00d434e91e1647f268ce8dc3496b1610d39c2f0334bbecc6,0x2cca08ae69e0c44b18a57ab2a87644234daebae4,104336312143570,DELIVERED,66,GUID,false,true,true,36453003_23513901,36453003_36453003
0x8314fd28f856dc1e39a481ea169efc8f7fd14f04c27eaaa1ade5ce4944bc86de,36451841,2025-10-05T19:37:09.000Z,30184,30101,Base,Ethereum,0xb2688bc31237c027301b8ea1e69759f641904bb77afe2bdcd83145cd35404882,,0x3488d35b470735a3a90e1c13cea5d1041c89c23f,,,,0x9e059a54699a285714207b43b055483e78faac25,0xd56e4eab23cb81f43168f9f45211eb027b9ac7cc,0x554833698ae0fb22ecc90b01222903fd62ca4b47,0xa0af56164f02bdf9d75287ee77c568889f11d5f2,0xc2a0c36f5939a14966705c7cec813163faeea1f0,2,3,0x8314fd28f856dc1e39a481ea169efc8f7fd14f04c27eaaa1ade5ce4944bc86de,36451841,2025-10-05T19:37:09.000Z,11031551540847,11031551540847,11286150287823,11286150287823,11286150287823,0x2ecc9c108301d50ac506915e622ceae36a5df0394548dc55b7f6a2ab95049f45,23513707,2025-10-05T19:38:11.000Z,OFTReceived,,,,0x8314fd28f856dc1e39a481ea169efc8f7fd14f04c27eaaa1ade5ce4944bc86de,0x2cca08ae69e0c44b18a57ab2a87644234daebae4,116965218243570,DELIVERED,62,GUID,false,true,true,36451841_23513707,36451841_36451841
0x423a4ffe2ea79e32f9552263d8f3999bb17e31b394ac688fa3c37bd0d460331d,36451820,2025-10-05T19:36:27.000Z,30184,30101,Base,Ethereum,0x2b071a4b48b78728c2a79a8c89e3fc185312b1940a3bf3d3c2748ccf36e36c51,,0x04ce218ead72401702dd5f3e56cedb7d2d477777,,,,0x9e059a54699a285714207b43b055483e78faac25,0xd56e4eab23cb81f43168f9f45211eb027b9ac7cc,0x554833698ae0fb22ecc90b01222903fd62ca4b47,0xa0af56164f02bdf9d75287ee77c568889f11d5f2,0xc2a0c36f5939a14966705c7cec813163faeea1f0,2,3,0x423a4ffe2ea79e32f9552263d8f3999bb17e31b394ac688fa3c37bd0d460331d,36451820,2025-10-05T19:36:27.000Z,11031551540847,11031551540847,11286150287823,11286150287823,11286150287823,0x119e18133a2f94a82c9352e2759a1e3e096a7244d2f2dca51d7378dffa54dd3b,23513704,2025-10-05T19:37:35.000Z,OFTReceived,,,,0x423a4ffe2ea79e32f9552263d8f3999bb17e31b394ac688fa3c37bd0d460331d,0x2cca08ae69e0c44b18a57ab2a87644234daebae4,104336312143570,DELIVERED,68,GUID,false,true,true,36451820_23513704,36451820_36451820
0x9d82eec307e2b9eaebc6dc78479643f8927e3c7c508cf35b695b71c122256d2d,36451372,2025-10-05T19:21:31.000Z,30184,30101,Base,Ethereum,0xb3a69ef5af3c1d0b33a613e72bfca8b3b22147772ae58ed7ed8195e3d3eacec2,,0xdb3812cd8d20f27888677ddc97df1241850f8c48,,,,0x9e059a54699a285714207b43b055483e78faac25,0xd56e4eab23cb81f43168f9f45211eb027b9ac7cc,0x554833698ae0fb22ecc90b01222903fd62ca4b47,0xa0af56164f02bdf9d75287ee77c568889f11d5f2,0xc2a0c36f5939a14966705c7cec813163faeea1f0,2,3,0x9d82eec307e2b9eaebc6dc78479643f8927e3c7c508cf35b695b71c122256d2d,36451372,2025-10-05T19:21:31.000Z,11031551540847,11031551540847,11286150287823,11286150287823,11286150287823,0xdb80aba8d2aaa341221e027d01ee7eb301ae744df00a972e79ceb83f72e6bc46,23513629,2025-10-05T19:22:35.000Z,OFTReceived,,,,0x9d82eec307e2b9eaebc6dc78479643f8927e3c7c508cf35b695b71c122256d2d,0x2cca08ae69e0c44b18a57ab2a87644234daebae4,230625373143570,DELIVERED,64,GUID,false,true,true,36451372_23513629,36451372_36451372
0x46263b6568a3f2ff8f0b34d50f972f32dde3549e78192b3a060dac5e53b6c6a3,36451370,2025-10-05T19:21:27.000Z,30184,30101,Base,Ethereum,0x86918771be8ee42855cf92b1894e6c4f8628fba4b06d6d717259a65110c46871,,0x3488d35b470735a3a90e1c13cea5d1041c89c23f,,,,0x9e059a54699a285714207b43b055483e78faac25,0xd56e4eab23cb81f43168f9f45211eb027b9ac7cc,0x554833698ae0fb22ecc90b01222903fd62ca4b47,0xa0af56164f02bdf9d75287ee77c568889f11d5f2,0xc2a0c36f5939a14966705c7cec813163faeea1f0,2,3,0x46263b6568a3f2ff8f0b34d50f972f32dde3549e78192b3a060dac5e53b6c6a3,36451370,2025-10-05T19:21:27.000Z,11031551540847,11031551540847,11286150287823,11286150287823,11286150287823,0x218b3cf4b1e5b0ebea4793814c4739036b442c312f3f57199ea1a0385bd238df,23513628,2025-10-05T19:22:23.000Z,OFTReceived,,,,0x46263b6568a3f2ff8f0b34d50f972f32dde3549e78192b3a060dac5e53b6c6a3,0x2cca08ae69e0c44b18a57ab2a87644234daebae4,116965218243570,DELIVERED,56,GUID,false,true,true,36451370_23513628,36451370_36451370
0xbff71c55750986a1ff5b97284d598699ab169529f8bf72542284c691f475c410,36449212,2025-10-05T18:09:31.000Z,30184,30101,Base,Ethereum,0x425471fde85e55c058bcaca1f1c8646d595d16d53a3928f58922c9511bb91b1b,,0x3488d35b470735a3a90e1c13cea5d1041c89c23f,,,,0x9e059a54699a285714207b43b055483e78faac25,0xd56e4eab23cb81f43168f9f45211eb027b9ac7cc,0x554833698ae0fb22ecc90b01222903fd62ca4b47,0xa0af56164f02bdf9d75287ee77c568889f11d5f2,0xc2a0c36f5939a14966705c7cec813163faeea1f0,2,3,0xbff71c55750986a1ff5b97284d598699ab169529f8bf72542284c691f475c410,36449212,2025-10-05T18:09:31.000Z,11031551540847,11031551540847,11286150287823,11286150287823,11286150287823,0x4f45070a5fe8f3327b2820aaa344f2ddbf271ef4e0c26c3a8fe1c781ab01ef67,23513270,2025-10-05T18:10:35.000Z,OFTReceived,,,,0xbff71c55750986a1ff5b97284d598699ab169529f8bf72542284c691f475c410,0x2cca08ae69e0c44b18a57ab2a87644234daebae4,116965218243570,DELIVERED,64,GUID,false,true,true,36449212_23513270,36449212_36449212
0x8af4606531f4229a8773f6e013f28718fca7f539c7e8f1f21ab2c6b8fd93784e,36440241,2025-10-05T13:10:29.000Z,30184,30101,Base,Ethereum,0xa754833201eda6c3146e5f7f00c45f4dff21243d47c52b622097f4d0ad7c599d,,0x1b98dd8875c2b56e39f0b02201cf5d235dddf1ba,,,,0x554833698ae0fb22ecc90b01222903fd62ca4b47,0x5b6735c66d97479ccd18294fc96b3084ecb2fa3f,0xc2a0c36f5939a14966705c7cec813163faeea1f0,,3,0,0x8af4606531f4229a8773f6e013f28718fca7f539c7e8f1f21ab2c6b8fd93784e,36440241,2025-10-05T13:10:29.000Z,2306724000000,2306724000000,2306724000000,,,,,,,,0x8af4606531f4229a8773f6e013f28718fca7f539c7e8f1f21ab2c6b8fd93784e,0x2cca08ae69e0c44b18a57ab2a87644234daebae4,16741415299858,SENT,N/A,NO_MATCH,true,false,false,,36440241_36440241
0x3461af35dd7d9db78770987653c07830772491fafb034e72236f810cc6eed5d5,36405359,2025-10-04T17:47:45.000Z,30184,30101,Base,Ethereum,0x2cb5f46686f485c011b835720529d7c231e03daa67b2aca9696cf3766d66e980,,0x3488d35b470735a3a90e1c13cea5d1041c89c23f,,,,0x9e059a54699a285714207b43b055483e78faac25,0xd56e4eab23cb81f43168f9f45211eb027b9ac7cc,0x554833698ae0fb22ecc90b01222903fd62ca4b47,0xa0af56164f02bdf9d75287ee77c568889f11d5f2,0xc2a0c36f5939a14966705c7cec813163faeea1f0,2,3,0x3461af35dd7d9db78770987653c07830772491fafb034e72236f810cc6eed5d5,36405359,2025-10-04T17:47:45.000Z,11031551540847,11031551540847,11286150287823,11286150287823,11286150287823,0xeff76649668d67d87de41e382a69890f3f7226d14fccc88f3e117622bb2541c2,23506004,2025-10-04T17:48:47.000Z,OFTReceived,,,,0x3461af35dd7d9db78770987653c07830772491fafb034e72236f810cc6eed5d5,0x2cca08ae69e0c44b18a57ab2a87644234daebae4,116965218243570,DELIVERED,62,GUID,false,true,true,36405359_23506004,36405359_36405359
0x0c24fd66f28340a6a7587ba8203ab5de1f8dedd9eb823fcde1ab7fbf6d8638ca,36402102,2025-10-04T15:59:11.000Z,30184,30101,Base,Ethereum,0x410f06daf7b57e3a903cd40ddcadef6c68174cb958ac8d4cccbbb5ad0c7b0b69,,0x1b98dd8875c2b56e39f0b02201cf5d235dddf1ba,,,,0x554833698ae0fb22ecc90b01222903fd62ca4b47,0x5b6735c66d97479ccd18294fc96b3084ecb2fa3f,0xc2a0c36f5939a14966705c7cec813163faeea1f0,,3,0,0x0c24fd66f28340a6a7587ba8203ab5de1f8dedd9eb823fcde1ab7fbf6d8638ca,36402102,2025-10-04T15:59:11.000Z,2383392000000,2383392000000,2383392000000,,,,,,,,0x0c24fd66f28340a6a7587ba8203ab5de1f8dedd9eb823fcde1ab7fbf6d8638ca,0x2cca08ae69e0c44b18a57ab2a87644234daebae4,16763445299858,SENT,N/A,NO_MATCH,true,false,false,,36402102_36402102
0x85cf19a87a6026a970bddaf33ded4aa8a34e3e992567e1d91c51ea43b2edc3b7,36378488,2025-10-04T02:52:03.000Z,30184,30101,Base,Ethereum,0xd4f1ef6a92a5542342204cb50d01f65b9d15fe756f1b1a8594a837ade4960849,,0x14fe3f2889cd05977ad4e2508e44cb0f3d7f56bb,,,,0x9e059a54699a285714207b43b055483e78faac25,0xd56e4eab23cb81f43168f9f45211eb027b9ac7cc,0x554833698ae0fb22ecc90b01222903fd62ca4b47,0xa0af56164f02bdf9d75287ee77c568889f11d5f2,0xc2a0c36f5939a14966705c7cec813163faeea1f0,2,3,0x85cf19a87a6026a970bddaf33ded4aa8a34e3e992567e1d91c51ea43b2edc3b7,36378488,2025-10-04T02:52:03.000Z,10539210320142,10539210320142,10782446254062,10782446254062,10782446254062,0xad0ea2287e219eea1b99fa67ece1d42c38e73a33ba9dceb54512b65498c64943,23501553,2025-10-04T02:53:11.000Z,OFTReceived,,,,0x85cf19a87a6026a970bddaf33ded4aa8a34e3e992567e1d91c51ea43b2edc3b7,0x2cca08ae69e0c44b18a57ab2a87644234daebae4,103234525091890,DELIVERED,68,GUID,false,true,true,36378488_23501553,36378488_36378488
0xf069eff25ace5ead8bc727ed06e5ba1aabbdcc7fadbf5520b9cabf10275ad075,36374227,2025-10-04T00:30:01.000Z,30184,30101,Base,Ethereum,0x12e87eba0e123a877f0f1ec59bd01fad550d33927f5b7c2c2bb94360063a2551,,0x1b98dd8875c2b56e39f0b02201cf5d235dddf1ba,,,,0x554833698ae0fb22ecc90b01222903fd62ca4b47,0x5b6735c66d97479ccd18294fc96b3084ecb2fa3f,0xc2a0c36f5939a14966705c7cec813163faeea1f0,,3,0,0xf069eff25ace5ead8bc727ed06e5ba1aabbdcc7fadbf5520b9cabf10275ad075,36374227,2025-10-04T00:30:01.000Z,2313372000000,2313372000000,2313372000000,,,,,,,,0xf069eff25ace5ead8bc727ed06e5ba1aabbdcc7fadbf5520b9cabf10275ad075,0x2cca08ae69e0c44b18a57ab2a87644234daebae4,16743965299858,SENT,N/A,NO_MATCH,true,false,false,,36374227_36374227
0x3dfa79f8b0e1dbe228bc631805576d408a8e08588a8c5a6d36ea62f97f7f3a53,36363440,2025-10-03T18:30:27.000Z,30184,30101,Base,Ethereum,0x9d39d76650af5007a915fce1e84a21a26f0a3091f755724d56a4ea3c9b57dd54,,0xeae5be3835191ebd198af53aa6541cc7de87d6e4,,,,0x554833698ae0fb22ecc90b01222903fd62ca4b47,0x5b6735c66d97479ccd18294fc96b3084ecb2fa3f,0xc2a0c36f5939a14966705c7cec813163faeea1f0,,3,0,0x3dfa79f8b0e1dbe228bc631805576d408a8e08588a8c5a6d36ea62f97f7f3a53,36363440,2025-10-03T18:30:27.000Z,117173976559,117173976559,117173976559,,,,,,,,0x3dfa79f8b0e1dbe228bc631805576d408a8e08588a8c5a6d36ea62f97f7f3a53,0x2cca08ae69e0c44b18a57ab2a87644234daebae4,4735569672131,SENT,N/A,NO_MATCH,true,false,false,,36363440_36363440
0xe82ebca1d436e5215a88a25ee74eea7f07e2e01511bfa99c11014540bc2d1b18,36361353,2025-10-03T17:20:53.000Z,30184,30101,Base,Ethereum,0x946488e39e12e3a2c607bcb7fe8a00c57e64fa740567c27d51777abdcbe6d5d1,,0x65a8f07bd9a8598e1b5b6c0a88f4779dbc077675,,,,0x9e059a54699a285714207b43b055483e78faac25,0xd56e4eab23cb81f43168f9f45211eb027b9ac7cc,0x554833698ae0fb22ecc90b01222903fd62ca4b47,0xa0af56164f02bdf9d75287ee77c568889f11d5f2,0xc2a0c36f5939a14966705c7cec813163faeea1f0,2,3,0xe82ebca1d436e5215a88a25ee74eea7f07e2e01511bfa99c11014540bc2d1b18,36361353,2025-10-03T17:20:53.000Z,102173949013399,102173949013399,104532036114391,104532036114391,104532036114391,0x7d4b7a048e4b32cdd2fe54906863d520894a07e007cd8d3e0ca406f39cc774bd,23498714,2025-10-03T17:21:59.000Z,OFTReceived,,,,0xe82ebca1d436e5215a88a25ee74eea7f07e2e01511bfa99c11014540bc2d1b18,0x2cca08ae69e0c44b18a57ab2a87644234daebae4,308299557899050,DELIVERED,66,GUID,false,true,true,36361353_23498714,36361353_36361353
0x13d952d23a4671b6b8ddb95bc0a6f76f76e21698da931ed1925e6325fa2569df,36355031,2025-10-03T13:50:09.000Z,30184,30101,Base,Ethereum,0xb68587d82d7ad523023e96b0d8736ae0864d6b406d055321e510b65dd5daea0b,,0x0aac8ef347c869fb7aa295674f44c1a9e54bcd0e,,,,0x9e059a54699a285714207b43b055483e78faac25,0xcd37ca043f8479064e10635020c65ffc005d36f6,0xd56e4eab23cb81f43168f9f45211eb027b9ac7cc,0x133e9fb2d339d8428476a714b1113b024343811e,0x554833698ae0fb22ecc90b01222903fd62ca4b47,0x5b6735c66d97479ccd18294fc96b3084ecb2fa3f,0xa7b5189bca84cd304d8553977c7c614329750d99,0xb3ce0a5d132cd9bf965aba435e650c55edce0062,0xc2a0c36f5939a14966705c7cec813163faeea1f0,0xcdf31d62140204c08853b547e64707110fbc6680,0xdd7b5e1db4aafd5c8ec3b764efb8ed265aa5445b,0xeede111103535e473451311e26c3e6660b0f77e1,3,9,0x13d952d23a4671b6b8ddb95bc0a6f76f76e21698da931ed1925e6325fa2569df,36355031,2025-10-03T13:50:09.000Z,31915159594592,31620529791622,31915159594592,33240993707955,32651734102016,32651734102016,31915159594592,31620529791622,32651734102016,31620529791622,31620529791622,31620529791622,,,,,,,,0x13d952d23a4671b6b8ddb95bc0a6f76f76e21698da931ed1925e6325fa2569df,0x2cca08ae69e0c44b18a57ab2a87644234daebae4,143763460707010,SENT,N/A,NO_MATCH,false,true,false,,36355031_36355031
0x350f036c4cee4fec78e4e3f022182070b9de67ca6dce1a82a64865926567d9ab,36346930,2025-10-03T09:20:07.000Z,30184,30101,Base,Ethereum,0x7ad03effcf0aa1d02676c7d22fead8e3c357d1dfb1095787db022a362ecbe844,,0x1b98dd8875c2b56e39f0b02201cf5d235dddf1ba,,,,0x554833698ae0fb22ecc90b01222903fd62ca4b47,0x5b6735c66d97479ccd18294fc96b3084ecb2fa3f,0xc2a0c36f5939a14966705c7cec813163faeea1f0,,3,0,0x350f036c4cee4fec78e4e3f022182070b9de67ca6dce1a82a64865926567d9ab,36346930,2025-10-03T09:20:07.000Z,2334504000000,2334504000000,2334504000000,,,,,,,,0x350f036c4cee4fec78e4e3f022182070b9de67ca6dce1a82a64865926567d9ab,0x2cca08ae69e0c44b18a57ab2a87644234daebae4,16749615299858,SENT,N/A,NO_MATCH,true,false,false,,36346930_36346930
0x4bda4177bdeebe6edd760c3ee0862d3ab6b529ba593f8abd15a3b504b1f90c7b,36327904,2025-10-02T22:45:55.000Z,30184,30101,Base,Ethereum,0xa68b602c695ca30a74e2eb8feee4182fd0f90aba0ec1d45d98285c0e15545b65,,0x65a8f07bd9a8598e1b5b6c0a88f4779dbc077675,,,,0x9e059a54699a285714207b43b055483e78faac25,0xd56e4eab23cb81f43168f9f45211eb027b9ac7cc,0x554833698ae0fb22ecc90b01222903fd62ca4b47,0xa0af56164f02bdf9d75287ee77c568889f11d5f2,0xc2a0c36f5939a14966705c7cec813163faeea1f0,2,3,0x4bda4177bdeebe6edd760c3ee0862d3ab6b529ba593f8abd15a3b504b1f90c7b,36327904,2025-10-02T22:45:55.000Z,31243618750276,31243618750276,31964694671044,31964694671044,31964694671044,0x7bdad84500f6b4ceae735df925554242a98cd327319c26efe65aac645af5dfe9,23493170,2025-10-02T22:46:59.000Z,OFTReceived,,,,0x4bda4177bdeebe6edd760c3ee0862d3ab6b529ba593f8abd15a3b504b1f90c7b,0x2cca08ae69e0c44b18a57ab2a87644234daebae4,149567938102330,DELIVERED,64,GUID,false,true,true,36327904_23493170,36327904_36327904
0x6fcc1ac05a327e6ec5fd49d407e9f7db76a7be8a0cdd59c094e1540e04c114cc,36327889,2025-10-02T22:45:25.000Z,30184,30101,Base,Ethereum,0xe0890d8e4122fb6d07b46be3b2a8351f78f54c4455678edb844db4ebd723d687,,0xe83f75907fb4c575414fa6f5cfe8cef24dc5870c,,,,0x9e059a54699a285714207b43b055483e78faac25,0xd56e4eab23cb81f43168f9f45211eb027b9ac7cc,0x554833698ae0fb22ecc90b01222903fd62ca4b47,0xa0af56164f02bdf9d75287ee77c568889f11d5f2,0xc2a0c36f5939a14966705c7cec813163faeea1f0,2,3,0x6fcc1ac05a327e6ec5fd49d407e9f7db76a7be8a0cdd59c094e1540e04c114cc,36327889,2025-10-02T22:45:25.000Z,31243618750276,31243618750276,31964694671044,31964694671044,31964694671044,0xc318f6e29093e0e6131f99344270f1ae88db5c84478eb0713210897debd0ed6e,23493167,2025-10-02T22:46:23.000Z,OFTReceived,,,,0x6fcc1ac05a327e6ec5fd49d407e9f7db76a7be8a0cdd59c094e1540e04c114cc,0x2cca08ae69e0c44b18a57ab2a87644234daebae4,221103247702330,DELIVERED,58,GUID,false,true,true,36327889_23493167,36327889_36327889
0x0eb5604236c4a4c273c64ac4fecf93feaf096f8630cf945829be05012e042de8,36314604,2025-10-02T15:22:35.000Z,30184,30101,Base,Ethereum,0xa20176c41bab99775c274b72d27677a8ceb43f96f35d80e0b3ac760b12f66733,,0xca74f404e0c7bfa35b13b511097df966d5a65597,,,,0x9e059a54699a285714207b43b055483e78faac25,0xd56e4eab23cb81f43168f9f45211eb027b9ac7cc,0x554833698ae0fb22ecc90b01222903fd62ca4b47,0xa0af56164f02bdf9d75287ee77c568889f11d5f2,0xc2a0c36f5939a14966705c7cec813163faeea1f0,2,3,0x0eb5604236c4a4c273c64ac4fecf93feaf096f8630cf945829be05012e042de8,36314604,2025-10-02T15:22:35.000Z,94868114421687,94868114421687,97057589127063,97057589127063,97057589127063,0xf207e57a6f3b7950c9352e6a7c95382e821aa746a9ad2911442644fc657782b7,23490972,2025-10-02T15:23:59.000Z,OFTReceived,,,,0x0eb5604236c4a4c273c64ac4fecf93feaf096f8630cf945829be05012e042de8,0x2cca08ae69e0c44b18a57ab2a87644234daebae4,509159969595570,DELIVERED,84,GUID,false,true,true,36314604_23490972,36314604_36314604
0x0187bbf78104077d05794339b0be2ed01931544746b84894d7f267231ce2f8c9,36305793,2025-10-02T10:28:53.000Z,30184,30101,Base,Ethereum,0x1a50d068a0cba8916249f32972d1844a86e39769033619837a01f6e453d0bb7c,,0x04ce218ead72401702dd5f3e56cedb7d2d477777,,,,0x9e059a54699a285714207b43b055483e78faac25,0xd56e4eab23cb81f43168f9f45211eb027b9ac7cc,0x554833698ae0fb22ecc90b01222903fd62ca4b47,0xa0af56164f02bdf9d75287ee77c568889f11d5f2,0xc2a0c36f5939a14966705c7cec813163faeea1f0,2,3,0x0187bbf78104077d05794339b0be2ed01931544746b84894d7f267231ce2f8c9,36305793,2025-10-02T10:28:53.000Z,49944468688472,49944468688472,51097144184696,51097144184696,51097144184696,0x93def7f1bca5823afcb309e5ec6dcfea025583ebdf0c3f5950d17beadfff187e,23489511,2025-10-02T10:29:59.000Z,OFTReceived,,,,0x0187bbf78104077d05794339b0be2ed01931544746b84894d7f267231ce2f8c9,0x2cca08ae69e0c44b18a57ab2a87644234daebae4,191417682651010,DELIVERED,66,GUID,false,true,true,36305793_23489511,36305793_36305793
0x6f7027f8cdf749193d5ace88eba049f2fb6881ca20e0fdead3705947351b5d8c,36305654,2025-10-02T10:24:15.000Z,30184,30101,Base,Ethereum,0xa19688bcbaaa1489cc30380cd34c9b081e827c14ff663eefee4ec52e01596f64,,0x04ce218ead72401702dd5f3e56cedb7d2d477777,,,,0x9e059a54699a285714207b43b055483e78faac25,0xd56e4eab23cb81f43168f9f45211eb027b9ac7cc,0x554833698ae0fb22ecc90b01222903fd62ca4b47,0xa0af56164f02bdf9d75287ee77c568889f11d5f2,0xc2a0c36f5939a14966705c7cec813163faeea1f0,2,3,0x6f7027f8cdf749193d5ace88eba049f2fb6881ca20e0fdead3705947351b5d8c,36305654,2025-10-02T10:24:15.000Z,49944468688472,49944468688472,51097144184696,51097144184696,51097144184696,0x40225d7594a150c57edc3ee2c2e58dad961f3bd335447d376d1d850eb86069c9,23489487,2025-10-02T10:25:11.000Z,OFTReceived,,,,0x6f7027f8cdf749193d5ace88eba049f2fb6881ca20e0fdead3705947351b5d8c,0x2cca08ae69e0c44b18a57ab2a87644234daebae4,191417682651010,DELIVERED,56,GUID,false,true,true,36305654_23489487,36305654_36305654
0x3533236ec9d2ceb5e2bb814fb477fc2e90fedb0e0ca163ca1140f4d491e65e25,36305606,2025-10-02T10:22:39.000Z,30184,30101,Base,Ethereum,0x4fd0a920a4e1c3657324f35a3c42f09a13cb5624c30af17458b445ce300f704d,,0xe83f75907fb4c575414fa6f5cfe8cef24dc5870c,,,,0x9e059a54699a285714207b43b055483e78faac25,0xd56e4eab23cb81f43168f9f45211eb027b9ac7cc,0x554833698ae0fb22ecc90b01222903fd62ca4b47,0xa0af56164f02bdf9d75287ee77c568889f11d5f2,0xc2a0c36f5939a14966705c7cec813163faeea1f0,2,3,0x3533236ec9d2ceb5e2bb814fb477fc2e90fedb0e0ca163ca1140f4d491e65e25,36305606,2025-10-02T10:22:39.000Z,49944468688472,49944468688472,51097144184696,51097144184696,51097144184696,0x03766245898c8365684092566d127f5140e764c409118f81a55351872f6f536f,23489480,2025-10-02T10:23:47.000Z,OFTReceived,,,,0x3533236ec9d2ceb5e2bb814fb477fc2e90fedb0e0ca163ca1140f4d491e65e25,0x2cca08ae69e0c44b18a57ab2a87644234daebae4,305770410451010,DELIVERED,68,GUID,false,true,true,36305606_23489480,36305606_36305606
0x7145a341abe93a16c85adf0bfc446034c63e7d216e077337e1457e51fc684e8c,36267357,2025-10-01T13:07:41.000Z,30184,30101,Base,Ethereum,0xa640c4e8f6ae73f4dac47984ddde27782746e585a6d7ddf6a17c9ae3f14d6491,,0x280408247e0aa6ccf2ddb891317ffea06dbadb11,,,,0x9e059a54699a285714207b43b055483e78faac25,0xcd37ca043f8479064e10635020c65ffc005d36f6,0xd56e4eab23cb81f43168f9f45211eb027b9ac7cc,0x133e9fb2d339d8428476a714b1113b024343811e,0x554833698ae0fb22ecc90b01222903fd62ca4b47,0x5b6735c66d97479ccd18294fc96b3084ecb2fa3f,0xa7b5189bca84cd304d8553977c7c614329750d99,0xb3ce0a5d132cd9bf965aba435e650c55edce0062,0xc2a0c36f5939a14966705c7cec813163faeea1f0,0xcdf31d62140204c08853b547e64707110fbc6680,0xdd7b5e1db4aafd5c8ec3b764efb8ed265aa5445b,0xeede111103535e473451311e26c3e6660b0f77e1,3,9,0x7145a341abe93a16c85adf0bfc446034c63e7d216e077337e1457e51fc684e8c,36267357,2025-10-01T13:07:41.000Z,54173827709509,53673713519672,54173827709509,56424341563774,55424113184101,55424113184101,54173827709509,53673713519672,55424113184101,53673713519672,53673713519672,53673713519672,,,,,,,,0x7145a341abe93a16c85adf0bfc446034c63e7d216e077337e1457e51fc684e8c,0x2cca08ae69e0c44b18a57ab2a87644234daebae4,193566158595499,SENT,N/A,NO_MATCH,false,true,false,,36267357_36267357
0x9f777dcf02715bc69ca4619533dc4878e360ee9bd8c056914c977f53844cbcb1,36254033,2025-10-01T05:43:33.000Z,30184,30101,Base,Ethereum,0x4c12f76512c542fd9a5babcce7bac6c4bf2fe86e971e116a3058d1d66ab89422,,0xa914d98fcd512932f87e749b226588274c7050fa,,,,0x9e059a54699a285714207b43b055483e78faac25,0xcd37ca043f8479064e10635020c65ffc005d36f6,0xd56e4eab23cb81f43168f9f45211eb027b9ac7cc,0x133e9fb2d339d8428476a714b1113b024343811e,0x554833698ae0fb22ecc90b01222903fd62ca4b47,0x5b6735c66d97479ccd18294fc96b3084ecb2fa3f,0xa7b5189bca84cd304d8553977c7c614329750d99,0xb3ce0a5d132cd9bf965aba435e650c55edce0062,0xc2a0c36f5939a14966705c7cec813163faeea1f0,0xcdf31d62140204c08853b547e64707110fbc6680,0xdd7b5e1db4aafd5c8ec3b764efb8ed265aa5445b,0xeede111103535e473451311e26c3e6660b0f77e1,3,9,0x9f777dcf02715bc69ca4619533dc4878e360ee9bd8c056914c977f53844cbcb1,36254033,2025-10-01T05:43:33.000Z,14226714438342,14095378291974,14226714438342,14817727096998,14555054804262,14555054804262,14226714438342,14095378291974,14555054804262,14095378291974,14095378291974,14095378291974,,,,,,,,0x9f777dcf02715bc69ca4619533dc4878e360ee9bd8c056914c977f53844cbcb1,0x2cca08ae69e0c44b18a57ab2a87644234daebae4,113316690505339,SENT,N/A,NO_MATCH,false,true,false,,36254033_36254033
0xb817f4cfd94dd2339934c2b91bd5bee7f5fcefbcb47658ee154d4bdad8b33391,36251462,2025-10-01T04:17:51.000Z,30184,30101,Base,Ethereum,0xead8931894b78d14d3db36bea05b0b69bd7d12a8ec06af81ca826c6c40b2e156,,0x43ac280ade127b3b61329389ea1c2288b375a4d2,,,,0x554833698ae0fb22ecc90b01222903fd62ca4b47,0x5b6735c66d97479ccd18294fc96b3084ecb2fa3f,0xc2a0c36f5939a14966705c7cec813163faeea1f0,,3,0,0xb817f4cfd94dd2339934c2b91bd5bee7f5fcefbcb47658ee154d4bdad8b33391,36251462,2025-10-01T04:17:51.000Z,2318496000000,2318496000000,2318496000000,,,,,,,,0xb817f4cfd94dd2339934c2b91bd5bee7f5fcefbcb47658ee154d4bdad8b33391,0x2cca08ae69e0c44b18a57ab2a87644234daebae4,17762729270547,SENT,N/A,NO_MATCH,true,false,false,,36251462_36251462
0x74c69f876f0bd16950062dad072a2ad28e8296937f1ce78999a3468a560b8cc5,36241028,2025-09-30T22:30:03.000Z,30184,30101,Base,Ethereum,0x57a6b3b768d90060ce2c087373c1c7334c78b07fde96259506c6c4f8570039a2,,0x04ce218ead72401702dd5f3e56cedb7d2d477777,,,,0x9e059a54699a285714207b43b055483e78faac25,0xd56e4eab23cb81f43168f9f45211eb027b9ac7cc,0x554833698ae0fb22ecc90b01222903fd62ca4b47,0xa0af56164f02bdf9d75287ee77c568889f11d5f2,0xc2a0c36f5939a14966705c7cec813163faeea1f0,2,3,0x74c69f876f0bd16950062dad072a2ad28e8296937f1ce78999a3468a560b8cc5,36241028,2025-09-30T22:30:03.000Z,46077295257109,46077295257109,47140719707701,47140719707701,47140719707701,0xb5525bdfdc8975a87692b9257fc51f068ea5191a67027608a8055576b7162e55,23478803,2025-09-30T22:31:11.000Z,OFTReceived,,,,0x74c69f876f0bd16950062dad072a2ad28e8296937f1ce78999a3468a560b8cc5,0x2cca08ae69e0c44b18a57ab2a87644234daebae4,187850938615499,DELIVERED,68,GUID,false,true,true,36241028_23478803,36241028_36241028
0x29be8bdf97406f18bffddf8bbee180d90c72d645815a0426532ae14f4bf2a262,36238293,2025-09-30T20:58:53.000Z,30184,30101,Base,Ethereum,0x5d7542b3b970dee9e9e9fbb8e3947810856e31834098bc310be34a572b8d7c9a,,0xbe3ba643bdbcc8b8a5ea341306681692448d5618,,,,0x554833698ae0fb22ecc90b01222903fd62ca4b47,0x5b6735c66d97479ccd18294fc96b3084ecb2fa3f,0xc2a0c36f5939a14966705c7cec813163faeea1f0,,3,0,0x29be8bdf97406f18bffddf8bbee180d90c72d645815a0426532ae14f4bf2a262,36238293,2025-09-30T20:58:53.000Z,19934165853843,19934165853843,19934165853843,,,,,,,,0x29be8bdf97406f18bffddf8bbee180d90c72d645815a0426532ae14f4bf2a262,0x2cca08ae69e0c44b18a57ab2a87644234daebae4,37600155234020,SENT,N/A,NO_MATCH,true,false,false,,36238293_36238293
0x7df14b2efb8f277b6848767d83ab04be24c9beca9cde89a863c4b6e64528455a,36237782,2025-09-30T20:41:51.000Z,30184,30101,Base,Ethereum,0x577a64cb35a02bfa1d9ac1a4f27137d69c937c099b84a80a2235334f162c69ab,,0x04ce218ead72401702dd5f3e56cedb7d2d477777,,,,0x9e059a54699a285714207b43b055483e78faac25,0xd56e4eab23cb81f43168f9f45211eb027b9ac7cc,0x554833698ae0fb22ecc90b01222903fd62ca4b47,0xa0af56164f02bdf9d75287ee77c568889f11d5f2,0xc2a0c36f5939a14966705c7cec813163faeea1f0,2,3,0x7df14b2efb8f277b6848767d83ab04be24c9beca9cde89a863c4b6e64528455a,36237782,2025-09-30T20:41:51.000Z,46077295257109,46077295257109,47140719707701,47140719707701,47140719707701,0x376ff88754cd4941ba4642c15fd9a9a20180b0405408e8966ce4e511ad1d2f5d,23478266,2025-09-30T20:42:47.000Z,OFTReceived,,,,0x7df14b2efb8f277b6848767d83ab04be24c9beca9cde89a863c4b6e64528455a,0x2cca08ae69e0c44b18a57ab2a87644234daebae4,187850938615499,DELIVERED,56,GUID,false,true,true,36237782_23478266,36237782_36237782
0x58b5ca6af1a77db350a02475c922fce5337684d3660e83557310a0455d922e51,36236684,2025-09-30T20:05:15.000Z,30184,30101,Base,Ethereum,0x03ae2660f232a7f4c4e8b32914d9703ce0b7145187afab007d42a3f3e77304db,,0x1d15024c9d51dd9aae2a890f4187775c1ec4ec58,,,,0x9e059a54699a285714207b43b055483e78faac25,0xd56e4eab23cb81f43168f9f45211eb027b9ac7cc,0x554833698ae0fb22ecc90b01222903fd62ca4b47,0xa0af56164f02bdf9d75287ee77c568889f11d5f2,0xc2a0c36f5939a14966705c7cec813163faeea1f0,2,3,0x58b5ca6af1a77db350a02475c922fce5337684d3660e83557310a0455d922e51,36236684,2025-09-30T20:05:15.000Z,46077295257109,46077295257109,47140719707701,47140719707701,47140719707701,0x1574022da60299bdde6c61eab1825e191c449a911f6493c142641656ea4f09e5,23478084,2025-09-30T20:06:23.000Z,OFTReceived,,,,0x58b5ca6af1a77db350a02475c922fce5337684d3660e83557310a0455d922e51,0x2cca08ae69e0c44b18a57ab2a87644234daebae4,314449087495499,DELIVERED,68,GUID,false,true,true,36236684_23478084,36236684_36236684
0x0b7dacc094dea75a4284df51e86246b59670c4f1ea32875491959f72ce66cba9,36234067,2025-09-30T18:38:01.000Z,30184,30101,Base,Ethereum,0x76bbe87911714fd30b2e97c82d0b095f1cf5e276a9da79ced9b556c145be4425,,0xeae5be3835191ebd198af53aa6541cc7de87d6e4,,,,0x554833698ae0fb22ecc90b01222903fd62ca4b47,0x5b6735c66d97479ccd18294fc96b3084ecb2fa3f,0xc2a0c36f5939a14966705c7cec813163faeea1f0,,3,0,0x0b7dacc094dea75a4284df51e86246b59670c4f1ea32875491959f72ce66cba9,36234067,2025-09-30T18:38:01.000Z,2406000000000,2406000000000,2406000000000,,,,,,,,0x0b7dacc094dea75a4284df51e86246b59670c4f1ea32875491959f72ce66cba9,0x2cca08ae69e0c44b18a57ab2a87644234daebae4,17787809270547,SENT,N/A,NO_MATCH,true,false,false,,36234067_36234067
0x9c4dd4d80c301be1cc84ce1cb6c957687b84570f2093c5f2004c08bde7a91f4b,36231398,2025-09-30T17:09:03.000Z,30184,30101,Base,Ethereum,0x05106c1c97f9687c0a77efba3e30c14785bddb527dc47398ccb4d04c67f77c24,,0x04ce218ead72401702dd5f3e56cedb7d2d477777,,,,0x9e059a54699a285714207b43b055483e78faac25,0xd56e4eab23cb81f43168f9f45211eb027b9ac7cc,0x554833698ae0fb22ecc90b01222903fd62ca4b47,0xa0af56164f02bdf9d75287ee77c568889f11d5f2,0xc2a0c36f5939a14966705c7cec813163faeea1f0,2,3,0x9c4dd4d80c301be1cc84ce1cb6c957687b84570f2093c5f2004c08bde7a91f4b,36231398,2025-09-30T17:09:03.000Z,150689340197424,150689340197424,154167120911664,154167120911664,154167120911664,0xf036e4a30e9c14a873f7942035e75f3adf82bb034bbbfbddbab5d7989b9fa354,23477207,2025-09-30T17:10:11.000Z,OFTReceived,,,,0x9c4dd4d80c301be1cc84ce1cb6c957687b84570f2093c5f2004c08bde7a91f4b,0x2cca08ae69e0c44b18a57ab2a87644234daebae4,421957269179939,DELIVERED,68,GUID,false,true,true,36231398_23477207,36231398_36231398
0xfa0a892009d7d45385e3754e596d47850cfb2f4cc4f14a2a4e81bdac8c9f2047,36231088,2025-09-30T16:58:43.000Z,30184,30101,Base,Ethereum,0x0dc7e66ae6ebb43d8e09392a994ac294ac8deed96c114e92ad6c7c6fe516bdba,,0x1d15024c9d51dd9aae2a890f4187775c1ec4ec58,,,,0x9e059a54699a285714207b43b055483e78faac25,0xd56e4eab23cb81f43168f9f45211eb027b9ac7cc,0x554833698ae0fb22ecc90b01222903fd62ca4b47,0xa0af56164f02bdf9d75287ee77c568889f11d5f2,0xc2a0c36f5939a14966705c7cec813163faeea1f0,2,3,0xfa0a892009d7d45385e3754e596d47850cfb2f4cc4f14a2a4e81bdac8c9f2047,36231088,2025-09-30T16:58:43.000Z,150689340197424,150689340197424,154167120911664,154167120911664,154167120911664,0xe60d6dfc81d3729d01f891ac22ff0810fbd3b2106af5aa34bb0099d7f6065505,23477155,2025-09-30T16:59:47.000Z,OFTReceived,,,,0xfa0a892009d7d45385e3754e596d47850cfb2f4cc4f14a2a4e81bdac8c9f2047,0x2cca08ae69e0c44b18a57ab2a87644234daebae4,835978782779939,DELIVERED,64,GUID,false,true,true,36231088_23477155,36231088_36231088
0xf3c884742aa189d540cb46a1b922a3be0eb9c9e63410411f5cd217bbf74faa2f,36228390,2025-09-30T15:28:47.000Z,30184,30101,Base,Ethereum,0xab6dea4a49f9d2f9a4fefea7a9141fcfac80e8aa5503f23b4e9f993bab03b9ee,,0x04ce218ead72401702dd5f3e56cedb7d2d477777,,,,0x9e059a54699a285714207b43b055483e78faac25,0xd56e4eab23cb81f43168f9f45211eb027b9ac7cc,0x554833698ae0fb22ecc90b01222903fd62ca4b47,0xa0af56164f02bdf9d75287ee77c568889f11d5f2,0xc2a0c36f5939a14966705c7cec813163faeea1f0,2,3,0xf3c884742aa189d540cb46a1b922a3be0eb9c9e63410411f5cd217bbf74faa2f,36228390,2025-09-30T15:28:47.000Z,150689340197424,150689340197424,154167120911664,154167120911664,154167120911664,0xa9d60e24b7740dd9ac3bc2f4565f4c6e6cac829b3e2c526f8b6f7681f84664c6,23476706,2025-09-30T15:29:59.000Z,OFTReceived,,,,0xf3c884742aa189d540cb46a1b922a3be0eb9c9e63410411f5cd217bbf74faa2f,0x2cca08ae69e0c44b18a57ab2a87644234daebae4,421957269179939,DELIVERED,72,GUID,false,true,true,36228390_23476706,36228390_36228390
0xf5145464918dc12d39f0373d084278f8338c87d9613447a6165edf57830d114d,36215258,2025-09-30T08:11:03.000Z,30184,30101,Base,Ethereum,0x35d372be2ff6e545a8733f9e1414829c17f5c6832e754aa4623164f7f1a7987a,,0x11111282dc0e6f4050df6ca87a3ef7a5c0a141c4,,,,0x554833698ae0fb22ecc90b01222903fd62ca4b47,0x5b6735c66d97479ccd18294fc96b3084ecb2fa3f,0xc2a0c36f5939a14966705c7cec813163faeea1f0,,3,0,0xf5145464918dc12d39f0373d084278f8338c87d9613447a6165edf57830d114d,36215258,2025-09-30T08:11:03.000Z,292786624980,292786624980,292786624980,,,,,,,,0xf5145464918dc12d39f0373d084278f8338c87d9613447a6165edf57830d114d,0x2cca08ae69e0c44b18a57ab2a87644234daebae4,5302315626985,SENT,N/A,NO_MATCH,true,false,false,,36215258_36215258
0xb085bf8ae3b681998c2de068437409b19ffc4a38952aba34d77cfc21b98aa788,36214343,2025-09-30T07:40:33.000Z,30184,30101,Base,Ethereum,0xe01c0cba5a8283fee0893945232b08bd0b6a87791033a8b3b72a8f6825adb55e,,0x74511bae6216c85fc1365a1686503d1a7c69fb62,,,,0x554833698ae0fb22ecc90b01222903fd62ca4b47,0x5b6735c66d97479ccd18294fc96b3084ecb2fa3f,0xc2a0c36f5939a14966705c7cec813163faeea1f0,,3,0,0xb085bf8ae3b681998c2de068437409b19ffc4a38952aba34d77cfc21b98aa788,36214343,2025-09-30T07:40:33.000Z,2345244000000,2345244000000,2345244000000,,,,,,,,0xb085bf8ae3b681998c2de068437409b19ffc4a38952aba34d77cfc21b98aa788,0x2cca08ae69e0c44b18a57ab2a87644234daebae4,17770069270547,SENT,N/A,NO_MATCH,true,false,false,,36214343_36214343
0x21442616054f1fbbc60048ce83b425e32ce655688dae2d39ce5bb77dee1f636c,36187713,2025-09-29T16:52:53.000Z,30184,30101,Base,Ethereum,0xa01374a7dca86c5fe7c596fb13f7b113b127f50fd0bdcf2aebb3633fbd6bf8b1,,0xc8d5cf84e1aa38ffa9e5e532fc97b2f6e1c4740c,,,,0x9e059a54699a285714207b43b055483e78faac25,0xd56e4eab23cb81f43168f9f45211eb027b9ac7cc,0x554833698ae0fb22ecc90b01222903fd62ca4b47,0xa0af56164f02bdf9d75287ee77c568889f11d5f2,0xc2a0c36f5939a14966705c7cec813163faeea1f0,2,3,0x21442616054f1fbbc60048ce83b425e32ce655688dae2d39ce5bb77dee1f636c,36187713,2025-09-29T16:52:53.000Z,1384604387694124,1384604387694124,1416559869283372,1416559869283372,1416559869283372,0xd76d8c81174e4eaed4ac90c8bab70f2c01deaac02c1955a780216ab6f76e4bec,23469969,2025-09-29T16:53:59.000Z,OFTReceived,,,,0x21442616054f1fbbc60048ce83b425e32ce655688dae2d39ce5bb77dee1f636c,0x2cca08ae69e0c44b18a57ab2a87644234daebae4,3253467469305312,DELIVERED,66,GUID,false,true,true,36187713_23469969,36187713_36187713
0x4b7f42d9429e3b01113e3a4cca2a3229e93897eafabeebe8d4ed58c1916c715b,36169139,2025-09-29T06:33:45.000Z,30184,30101,Base,Ethereum,0xb96107a1604f509df3dce1cb5de067db30feda03cfca894021dd880f1e427a1d,,0xe6535df78352a2f0bde571c72cad4f6fb73fcc2d,,,,0x554833698ae0fb22ecc90b01222903fd62ca4b47,0x5b6735c66d97479ccd18294fc96b3084ecb2fa3f,0xc2a0c36f5939a14966705c7cec813163faeea1f0,,3,0,0x4b7f42d9429e3b01113e3a4cca2a3229e93897eafabeebe8d4ed58c1916c715b,36169139,2025-09-29T06:33:45.000Z,10150359139065,10150359139065,10150359139065,0xb3ac8d63a9f0b40c0569193a824fea44fefe99dfc7b0dbd862cbb7bee1593daf,23466891,2025-09-29T06:34:35.000Z,OFTReceived,,,,0x4b7f42d9429e3b01113e3a4cca2a3229e93897eafabeebe8d4ed58c1916c715b,0x2cca08ae69e0c44b18a57ab2a87644234daebae4,104667739483619,DELIVERED,50,GUID,true,false,true,36169139_23466891,36169139_36169139
0x240089abc6fc296f437ec0945290b1bf073e66b9e05a864ca0932c841974506f,36127475,2025-09-28T07:24:57.000Z,30184,30101,Base,Ethereum,0xd1ba4fd1d417d0e1386d7da2d852362e410e1d4e8159eea447070687eb335723,,0x144aa5fa6a2d93693c414a5e9c837089c6f29b4d,,,,0x554833698ae0fb22ecc90b01222903fd62ca4b47,0x5b6735c66d97479ccd18294fc96b3084ecb2fa3f,0xc2a0c36f5939a14966705c7cec813163faeea1f0,,3,0,0x240089abc6fc296f437ec0945290b1bf073e66b9e05a864ca0932c841974506f,36127475,2025-09-28T07:24:57.000Z,2311908000000,2311908000000,2311908000000,,,,,,,,0x240089abc6fc296f437ec0945290b1bf073e66b9e05a864ca0932c841974506f,0x2cca08ae69e0c44b18a57ab2a87644234daebae4,18867092461853,SENT,N/A,NO_MATCH,true,false,false,,36127475_36127475
0x4b6cbad2d135d09c9c4681cf4089b1ce335f876dc3da28ee60d85e02772b843b,36097884,2025-09-27T14:58:35.000Z,30184,30101,Base,Ethereum,0x1eb1dab48a5afb5d7a3795f1eaa5cb8b99fd64d66aea8c28a69a507c36bbb1f5,,0xb9914547cf66e9607cc7607e10ed38c20e95270e,,,,0x554833698ae0fb22ecc90b01222903fd62ca4b47,0x5b6735c66d97479ccd18294fc96b3084ecb2fa3f,0xc2a0c36f5939a14966705c7cec813163faeea1f0,,3,0,0x4b6cbad2d135d09c9c4681cf4089b1ce335f876dc3da28ee60d85e02772b843b,36097884,2025-09-27T14:58:35.000Z,11279567337600,11279567337600,11279567337600,,,,,,,,0x4b6cbad2d135d09c9c4681cf4089b1ce335f876dc3da28ee60d85e02772b843b,0x2cca08ae69e0c44b18a57ab2a87644234daebae4,22026043341853,SENT,N/A,NO_MATCH,true,false,false,,36097884_36097884
0xdf8da50c70eb2f182b8d52fc2360dd765d175ea9df90c8bc753a00e1d91485f2,36069710,2025-09-26T23:19:27.000Z,30184,30101,Base,Ethereum,0x3dd83c545f84fe9c028aede500f099693c0ea8cd6c9ee7504bf42953b4be6eb8,,0xb8ac6ef01a6191c8689ad756b4a41dcad7021390,,,,0x9e059a54699a285714207b43b055483e78faac25,0xcd37ca043f8479064e10635020c65ffc005d36f6,0xd56e4eab23cb81f43168f9f45211eb027b9ac7cc,0x133e9fb2d339d8428476a714b1113b024343811e,0x554833698ae0fb22ecc90b01222903fd62ca4b47,0x5b6735c66d97479ccd18294fc96b3084ecb2fa3f,0xa7b5189bca84cd304d8553977c7c614329750d99,0xb3ce0a5d132cd9bf965aba435e650c55edce0062,0xc2a0c36f5939a14966705c7cec813163faeea1f0,0xcdf31d62140204c08853b547e64707110fbc6680,0xdd7b5e1db4aafd5c8ec3b764efb8ed265aa5445b,0xeede111103535e473451311e26c3e6660b0f77e1,3,9,0xdf8da50c70eb2f182b8d52fc2360dd765d175ea9df90c8bc753a00e1d91485f2,36069710,2025-09-26T23:19:27.000Z,22593285102872,22384711646782,22593285102872,23531865655275,23114718743096,23114718743096,22593285102872,22384711646782,23114718743096,22384711646782,22384711646782,22384711646782,,,,,,,,0xdf8da50c70eb2f182b8d52fc2360dd765d175ea9df90c8bc753a00e1d91485f2,0x2cca08ae69e0c44b18a57ab2a87644234daebae4,135658550000988,SENT,N/A,NO_MATCH,false,true,false,,36069710_36069710
0x3e8e3e50d5d8a4a8ce34712206748ed41799b6eda342a285905662b31a172978,36064074,2025-09-26T20:11:35.000Z,30184,30101,Base,Ethereum,0x2dad80eef679d146ba8b7fb11024fd4fde88c85a4c55bc194e0eb0742587d11e,,0x65a8f07bd9a8598e1b5b6c0a88f4779dbc077675,,,,0x9e059a54699a285714207b43b055483e78faac25,0xd56e4eab23cb81f43168f9f45211eb027b9ac7cc,0x554833698ae0fb22ecc90b01222903fd62ca4b47,0xa0af56164f02bdf9d75287ee77c568889f11d5f2,0xc2a0c36f5939a14966705c7cec813163faeea1f0,2,3,0x3e8e3e50d5d8a4a8ce34712206748ed41799b6eda342a285905662b31a172978,36064074,2025-09-26T20:11:35.000Z,22593285102872,22593285102872,23114718743096,23114718743096,23114718743096,0x4b9ee891f59150acdef9dda112a7885272ddf9d337fe779a92805a18323e57a4,23449497,2025-09-26T20:12:59.000Z,OFTReceived,,,,0x3e8e3e50d5d8a4a8ce34712206748ed41799b6eda342a285905662b31a172978,0x2cca08ae69e0c44b18a57ab2a87644234daebae4,140831502780988,DELIVERED,84,GUID,false,true,true,36064074_23449497,36064074_36064074
0xa70acf58f3d8eb5632627cfc3ebbe949d3c125e9cdf5fa0f6450406c79fec3f6,36057495,2025-09-26T16:32:17.000Z,30184,30101,Base,Ethereum,0xe2ee42583f24ec597e7fe5afdfe1067b071b7bedc2dce8d0391534ee834d5f3d,,0xb4bba6864f812d04313936911431ca2cda9f8e82,,,,0x554833698ae0fb22ecc90b01222903fd62ca4b47,0x5b6735c66d97479ccd18294fc96b3084ecb2fa3f,0xc2a0c36f5939a14966705c7cec813163faeea1f0,,3,0,0xa70acf58f3d8eb5632627cfc3ebbe949d3c125e9cdf5fa0f6450406c79fec3f6,36057495,2025-09-26T16:32:17.000Z,9385437120000,9385437120000,9385437120000,,,,,,,,0xa70acf58f3d8eb5632627cfc3ebbe949d3c125e9cdf5fa0f6450406c79fec3f6,0x2cca08ae69e0c44b18a57ab2a87644234daebae4,21351862461853,SENT,N/A,NO_MATCH,true,false,false,,36057495_36057495
0x29d92a9c20398d37bbb9b196da510a30a1aae01a09dc27648b891c231f437b73,36042077,2025-09-26T07:58:21.000Z,30184,30101,Base,Ethereum,0xb958150c30697a224a8e623cbe5ed2170d9614f433f767d3972885d698dfdef5,,0xec40c8cfff44a3631c5e972c4ddf0702e666d6f8,,,,0x9e059a54699a285714207b43b055483e78faac25,0xcd37ca043f8479064e10635020c65ffc005d36f6,0xd56e4eab23cb81f43168f9f45211eb027b9ac7cc,0x133e9fb2d339d8428476a714b1113b024343811e,0x554833698ae0fb22ecc90b01222903fd62ca4b47,0x5b6735c66d97479ccd18294fc96b3084ecb2fa3f,0xa7b5189bca84cd304d8553977c7c614329750d99,0xb3ce0a5d132cd9bf965aba435e650c55edce0062,0xc2a0c36f5939a14966705c7cec813163faeea1f0,0xcdf31d62140204c08853b547e64707110fbc6680,0xdd7b5e1db4aafd5c8ec3b764efb8ed265aa5445b,0xeede111103535e473451311e26c3e6660b0f77e1,3,9,0x29d92a9c20398d37bbb9b196da510a30a1aae01a09dc27648b891c231f437b73,36042077,2025-09-26T07:58:21.000Z,23249841129614,23035206573556,23249841129614,24215696631873,23786427519758,23786427519758,23249841129614,23035206573556,23786427519758,23035206573556,23035206573556,23035206573556,,,,,,,,0x29d92a9c20398d37bbb9b196da510a30a1aae01a09dc27648b891c231f437b73,0x2cca08ae69e0c44b18a57ab2a87644234daebae4,136977500673588,SENT,N/A,NO_MATCH,false,true,false,,36042077_36042077
0x94548f2edbf4cd4b53e143c58bbea66d49fb69a14ab43d6960d1cced77cb35bb,36030021,2025-09-26T01:16:29.000Z,30184,30101,Base,Ethereum,0xefef2bbe7e97309dcd4d7f14bebc8521052fb2d124c912045dba738ed1d3ea12,,0xca74f404e0c7bfa35b13b511097df966d5a65597,,,,0x9e059a54699a285714207b43b055483e78faac25,0xd56e4eab23cb81f43168f9f45211eb027b9ac7cc,0x554833698ae0fb22ecc90b01222903fd62ca4b47,0xa0af56164f02bdf9d75287ee77c568889f11d5f2,0xc2a0c36f5939a14966705c7cec813163faeea1f0,2,3,0x94548f2edbf4cd4b53e143c58bbea66d49fb69a14ab43d6960d1cced77cb35bb,36030021,2025-09-26T01:16:29.000Z,23249841129614,23249841129614,23786427519758,23786427519758,23786427519758,0xa63378906e45299aa9f531eef1c4d1096c92b233f29fbec1f82b420057f358ad,23443865,2025-09-26T01:17:47.000Z,OFTReceived,,,,0x94548f2edbf4cd4b53e143c58bbea66d49fb69a14ab43d6960d1cced77cb35bb,0x2cca08ae69e0c44b18a57ab2a87644234daebae4,195533555153588,DELIVERED,78,GUID,false,true,true,36030021_23443865,36030021_36030021